_id,address,addressname,transactioncount,internaltxcount,addresstype
637605a92ae825a9f887712e,0x0000000000000000000000000000000000000400,Address Book,223,1056,Contract
637605a92ae825a9f8877130,0x00000000006c3852cbef3e08e8df289169ede581,Opensea Seaport,15658,47416,Contract
637605a92ae825a9f8877131,0x0039611735b48a1d7227d1df88e16cebc415aa72,OpenSea 1155 Proxy,2,13571,Contract
637605a92ae825a9f8877132,0x020794caf06273ef3a9b4b0323c72341ec070b15,Reward: Kakao Pay 2,22,26,External Owned Account
637605a92ae825a9f8877135,0x064ce4c3e8409a544ce91245f9f8cfc33bde8925,Reward: Quantstamp,4,0,External Owned Account
637605a92ae825a9f8877148,0x1a147924d0489fccf53471904dc271b9d20157a4,Reward: Jump Crypto-Everstake,3,18781,Contract
637605a92ae825a9f8877157,0x2888d9dcbd6cefb92a76712eca61391c37df8122,CN:Kakao Pay 2,31,53,Contract
637605aa2ae825a9f8877161,0x386ca3cb8bb13f48d1a6adc1fb8df09e7bb7f9c8,GC:Kakao Pay 1,5,0,Consensus Node
637605ab2ae825a9f8877180,0x5c66443b9d6ea82039d0ea3e04e8287688dcd4e0,GC:Netmable 2,2,0,External Owned Account
637605ab2ae825a9f8877181,0x5e17f617b33ee6cde415439bf5d06874baeddbbf,Reward: Everrich,381,108,External Owned Account
637605ab2ae825a9f8877182,0x5e59db28cef098d5a2e877f84127aed10d7378f2,GC:Pearl Abyss,2,0,Consensus Node
637605ab2ae825a9f8877186,0x66bd38323c9073fbee598b8132cc2e0fdc8b4bd1,CN:Netmable 2,28,42,Contract
637605ab2ae825a9f8877187,0x6873352021fe9226884616dc6f189f289aeb0cc5,GC:Verichains/VNG,2,0,Consensus Node
637605ab2ae825a9f887718b,0x6f6770f1f67f44fb15b335b49581ad6b935d963a,GC:Amorepacific,2,0,Consensus Node
637605ab2ae825a9f887718c,0x70a2bc3cbb9d4a55b070284918b3aad4e7b4143e,CN:GS Retail,36,59,Contract
637605ab2ae825a9f887718d,0x70d85a16d3f3bc13c109cec2604054ecf803afb3,Binance Deposit,10,2,External Owned Account
637605ab2ae825a9f887718e,0x716e48a4393fc064730da40d860bf962e618e33c,Reward: LX International 2,3,2,External Owned Account
637605ab2ae825a9f887718f,0x74f64cb6c2db9e0b270df1d4e563920381aec034,GC:Binance,2,0,Consensus Node
637605ad2ae825a9f88771c1,0xbe02aba56bae1624e2c4f029e3a79308e2a19e98,Kakao Pay 2,91375870,91375857,External Owned Account
637605ad2ae825a9f88771c3,0xc109f40f688eb75711f51dac0b759957fe7d8ec7,OpenSea,365,2593391,Contract
637605ae2ae825a9f88771dc,0xdff9e057f12c54ec49e02be401018e8334b8ba16,Swapscanner Deployer,5,2,External Owned Account
637605af2ae825a9f88771de,0xe2e2d9e31d7e1cc1178fe0d1c5950f6c809816a3,Portal Deployer,138,138,External Owned Account
637605af2ae825a9f88771df,0xe33337cb6fbb68954fe1c3fde2b21f56586632cd,KLAYstation: Hashed-Ozys,701953,50584037,Contract
637605af2ae825a9f88771e1,0xe3d49ffc285c668425b2966b683776f632859efa,Reward: FSN,4,4834713,Contract
637605af2ae825a9f88771ee,0xf3ea7de2ea224344461d25d5ebc769d51948057d,KLAYSwap Deployer,11,7,External Owned Account
637605af2ae825a9f88771ef,0xf50782a24afcb26acb85d086cf892bfffb5731b5,SwapScanner,1133718,17300437,Contract
637605af2ae825a9f88771f0,0xf52d509dade0d5d82da429e9d45d617e5416eb09,Klaymeta Deployer,37,35,External Owned Account
637605af2ae825a9f88771f2,0xf8b8a5eac80689b4386de3c223c4f50d3b971a56,GC:LX International 2,2,0,External Owned Account
637605af2ae825a9f88771f3,0xf8be3f1c1e64e472cf623f0b0e19b4517be9f204,KLEVA Deployer,1103,1092,External Owned Account
637605b22ae825a9f8877202,0x0051ef9259c7ec0644a80e866ab748a2f30841b3,Bybit 1,407516,6461,External Owned Account
637605b22ae825a9f8877204,0x04185389ec237dba242888a5a28b5555d011a223,Reward: Binance,6,0,External Owned Account
637605b22ae825a9f8877205,0x0b400517344fa7f529fd1c9ef11544868a12c578,Bithumb 2,164896,53,External Owned Account
637605b22ae825a9f8877206,0x0b7a430594085b078e357be5afa1ef73ef27b602,Reward: Pearl Abyss 2,7,160359,Contract
637605b22ae825a9f8877208,0x179679457f93094a4e7186abcb2089661e92fc22,Reward: Netmable,13,30,External Owned Account
637605b22ae825a9f8877211,0x40549671ca98cf893976a1ddf318359b5d653248,Reward: PUBG,7,1,External Owned Account
637605b22ae825a9f8877221,0x60070f5d2e1c1001400a04f152e7abd43410f7b9,Orbit Bridge ETH Minter,144491,1141701,Contract
637605b22ae825a9f8877223,0x6c9aa5f182f39c3c03c2ea8e9e934d73f876feaf,CN:Binance,20,39,Contract
637605b22ae825a9f8877227,0x76310015d9e79dafd1d74323135c95784b9d8b64,CN: NFT Bank,15,653,Contract
637605b22ae825a9f8877229,0x7db2dbb1321611be0b7e5a145f3a5a95e3713c1d,Reward: NFT Bank,7,0,External Owned Account
637605b22ae825a9f887722a,0x82aee37152c4d516bc5f472b4ad958c369c045be,UPbit 3,751351,744724,External Owned Account
637605b32ae825a9f8877234,0xaf7e157d2d7b571abe7161bf193bb697706e2172,GC:Ahnlab 2,2,0,External Owned Account
637605b32ae825a9f8877236,0xb2a4eb09e251bf72cb57cd675a839953fe393d0c,Bittrex 2,5907,5907,External Owned Account
637605b32ae825a9f8877237,0xba46c9c6d73b7ef8059785ad0c3af4f8e8a94e8c,UPbit 1,99800,90544,External Owned Account
637605b42ae825a9f8877251,0x0a5e4618d91c9ba77349c4064a04792a35a56b42,CN:Everrich 1,521,660,Contract
637605b42ae825a9f8877252,0x0b59cae1f03534209fdb9ddf5ea65b310cd7060c,GC:FSN,4,0,Consensus Node
637605b42ae825a9f887725e,0x1916ce6726e73dca6242b091322f68bbf520497b,CN:Kakao Games,164,262,Contract
637605b42ae825a9f8877262,0x1cf36ee02ab5b56a51c1fcddc84e0873fdebc812,CN: Swapscanner,11,24,Contract
637605b42ae825a9f8877265,0x1f604ab080123fe49ccf67d3e4d952f9cd76257d,CN:Ahnlab 1,21,39,Contract
637605b52ae825a9f887727e,0x4c1da9c8583aaee0ab9fecd7d5e9a1b559114202,Reward: Kakao Space 3,5,4,External Owned Account
637605b52ae825a9f887727f,0x4c921e2b4ac183b9b8ab32805ef4da8d59d49eae,GC: Swapscanner,4,0,Consensus Node
637605b52ae825a9f8877280,0x4fd849eb61bbef4d71352831a1cbddcb1fd98261,CN:Kracker Labs,36,1493,Contract
637605b52ae825a9f8877281,0x5216670c7f5624eeb8efc1e56f2cb075a9ce8452,Reward: Kracker Labs,2,916,Contract
637605b52ae825a9f8877282,0x52c0f3654e9ac47ba5e64ffcb398be485718a74b,GC: AQX,5,0,Consensus Node
637605b52ae825a9f8877290,0x664950481f0ba5f799ba3ab36fb26b294997158d,CN: Hi Inc,8,23,Contract
637605b52ae825a9f8877293,0x68d6ec675e0879e2098d25a4e45ec8a620c6a90a,Cypress,0,1,Contract
637605b72ae825a9f88772bf,0xbc8d2fd8c2ab4b76306d9d8b9f5721b13f239220,Reward: Kakao Space 2,4,26,External Owned Account
637605b92ae825a9f88772dd,0xe5d0ef77aed07c302634dc370537126a2cd26590,Alameda Research 8,17,15,External Owned Account
637605b92ae825a9f88772e1,0xeb41033d99570fcd11021081e0bec43a8d694bf8,CN: Thrust,12,6810,Contract
637605ba2ae825a9f88772e3,0xec6c1cede510be308f0fdbbc8dbdf238829bdb34,GC:Wemade 1,4,0,Consensus Node
637605ba2ae825a9f88772e4,0xed0e18f99b684009fcf44c80e471717335ac49c9,ClaimSwap Deployer,1647,1563,External Owned Account
637605bb2ae825a9f887730b,0x24e593fb29731e54905025c230727dc28d229f77,Reward: Hanwha Systems,16,25,External Owned Account
637605bb2ae825a9f887730d,0x2a2f23ff33671361010d357529bdf0adca9416fc,Pangea Deployer,715,712,External Owned Account
637605bb2ae825a9f887730e,0x2b2a7a1d29a203f60e0a964fc64231265a49cd97,Reward: Ahnlab,165,178,External Owned Account
637605bb2ae825a9f887730f,0x2dab13877237aa5d83c45a245b0107904d3165f6,Reward: Kakao Corp 2,4,0,External Owned Account
637605bb2ae825a9f8877312,0x322ec78cc94b04410ac43c2c8da7013a294bae3d,KlayCity Deployer,17784,17081,External Owned Account
637605bc2ae825a9f8877328,0x662a2c18b36b06f21105b019a8795f8d5a38b5b4,Reward:Jump Crypto-Everstake2,12,1556,External Owned Account
637605bd2ae825a9f8877342,0xa7742fc43c4cc193a4a1671cba589aa3c4133f7c,Reward: LX International,25,14,External Owned Account
637605bd2ae825a9f8877343,0xa7886fbc6d33dd19c090fd48337a409941f75e1f,Reward: Kracker Labs3,3,8964,Contract
637605bd2ae825a9f8877346,0xb0a83941058b109bd0543fa26d22efb8a2d0f431,Orbit Bridge BSC Minter,108101,884652,Contract
637605be2ae825a9f887736b,0xf786c3720a10cb48c8f12d0ac2086dcf227c7cde,Reward: Wemade,44,10,External Owned Account
637605be2ae825a9f8877370,0xfb416e2a714a5d1e034beacf0646a36876b72765,GC:Alameda Research,3,0,Consensus Node
637605be2ae825a9f8877371,0xfb9054bc52639579ba694fb3ac00259f561841ce,Reward: UBP 2,28,19,External Owned Account
637605be2ae825a9f8877372,0xfc0b19569867a6a9324b65fecb6f1b43bb16ccf3,MulticallExtended,0,1,Contract
637605bf2ae825a9f8877373,0xfc2a7ec29143621c7e0e651ee2bca428a95c7af4,Reward: Wemade 2,239,238,External Owned Account
637605bf2ae825a9f8877374,0xfc37e31fe3b1019f5be58cb826e5d7b08f9b2e35,Reward: KrossLab,4,0,External Owned Account
637605bf2ae825a9f8877375,0xfda6aaaf53d706eb2099c5637d5e4199dd5d4138,CN:Hashed-Ozys,28,10776976,Contract
637605c12ae825a9f8877385,0x0c41cce8ddaea235f97745a13207421dca7340fa,Reward: Verichains/VNG,9,25,External Owned Account
637605c12ae825a9f8877388,0x0edf1992d42740affd07da51badc1c76e98a5585,CN:MakerDAO,17,34,Contract
637605c12ae825a9f8877399,0x1ee5cd9875011a11558c92e7406fcf08ffa0b7f4,CN:Wemade 1,37,60,Contract
637605c12ae825a9f887739b,0x2222222ff003b62605ca622a9daab160497e95ba,Giveaway,136,35069,Contract
637605c12ae825a9f887739e,0x24f55a6f46f126aa7209c882c275fedb6c108164,KLAY Genesis 2,2,2,External Owned Account
637605c12ae825a9f88773a0,0x2968c66f14308673c12812febfa58cfe87c4e5a8,Coinone 1,1197639,199288,External Owned Account
637605c22ae825a9f88773ae,0x41cff281b578f4cf45515d6e4efd535e47e76efd,OpenSea2,657944,3787381,Contract
637605c32ae825a9f88773ce,0x5f1dbd747996d8d31e2ab0317be7ffffd155522a,Reward: Kakao Entertainment,16,26,External Owned Account
637605c42ae825a9f88773f1,0x86d2660297c82ac656715e00c979fb5ca65eecc5,Binance 1,1874377,3949,External Owned Account
637605c42ae825a9f88773f2,0x87102d7d4e813f08c1bb4fbbe513c1f8c4df24a1,AirdropOperatorDeployer,30,61,Contract
637605c42ae825a9f88773f3,0x8a88a093c05376886754a9b70b0d0a826a5e64be,GC:Yeahmobi,3,0,Consensus Node
637605c52ae825a9f88773f4,0x926601ab01b1a70ec84af781aeca5e71575e08e8,Klap Deployer,5606,5581,External Owned Account
637605c52ae825a9f88773f5,0x942a8d56c6330578b1e856c1c972a1ce621ff1c4,Reward: Celltrion,17,39,External Owned Account
637605c52ae825a9f8877402,0xa8f51f43d6d19bdf0eb7df5e279c8058a64d20e4,CN:Kakao Space,51,79557,Contract
637605c52ae825a9f8877403,0xac7f6f8a63733877a78917dc798ed7693095be7b,Reward: Korea Economic Daily,4,15216259,Contract
637605c52ae825a9f8877404,0xadb287e1f8405f085c740e791a3914f9b07acae0,Reward: Hashed-Ozys,5,27716877,Contract
637605c52ae825a9f8877405,0xafd197d383453b08b7c1509bdb4b6afee9f66578,Klaytn Reserve 1,29,41,Contract
637605c62ae825a9f887741d,0xc5b67d88c3a26fcee67fc542009d8526f6b4c8a3,Reward: Hi Inc,14,2,External Owned Account
637605c62ae825a9f887741e,0xc5ed2333f8a2c351fca35e5ebadb2a82f5d254c3, Alameda Research 6,20,18,External Owned Account
637605c82ae825a9f887744d,0xfa416ef420b553f6ad622cda922e9d195a8025df,Coinone 2,55,24,External Owned Account
637605ca2ae825a9f8877463,0x962cdb28e662b026df276e5ee7fdf13a06341d68,KLAYstation: FSN,80959,7872419,Contract
637605ca2ae825a9f8877464,0x9b5e406e8c7edb54154ec81de8e3f42e74b5fdf3,CN:FSN,60,1706086,Contract
637605ca2ae825a9f8877465,0xbd2bdd78de340ed82f99120d332acf36dc0a34ea,Reward: FSN 2,68,29,External Owned Account
637605ca2ae825a9f8877468,0xe21ec87edfaa34070455ebd85072e4e3413dbea6,Reward: NFT Bank2,7,735,Contract
637605ca2ae825a9f887746b,0xe81339694c4fcf629606347f4aff0633697d190a,WEMIX EcoFund,14,12,External Owned Account
637605ca2ae825a9f887746c,0xffb11e6e660f76e54cffee6f7eaac36221cc42c4,Reward: Amorepacific 2,8,12,External Owned Account
637605ca2ae825a9f887746d,0x03497f51c31fe8b402df0bde90fd5a85f87aa943,GC:Ahnlab 1,2,0,Consensus Node
637605ca2ae825a9f887746f,0x071086d607198e5e908f6a260adc53a925c0c161,Reward: Gumi,3,0,External Owned Account
637605ca2ae825a9f8877477,0x169a89b74ec6db558a8a344b641d6f0a7e2f14b3,GC:Kakao Entertainment 2,2,0,External Owned Account
637605ca2ae825a9f8877478,0x16c192585a0ab24b552783b4bf7d8dc9f6855c35,GC:Everrich 1,2,0,Consensus Node
637605ca2ae825a9f8877479,0x1782834bf8847e235f21f2c1f13fca4d5dff6621,GC:UBP,2,0,Consensus Node
637605ca2ae825a9f887747a,0x186de0382923086f73367bab16af09aeda4e54bf,Reward: Ground X,185,84,External Owned Account
637605ca2ae825a9f8877481,0x27cbaf98ddfb5c09c787cd6d99a77c5774152b43,GC: Quantstamp,4,0,External Owned Account
637605ca2ae825a9f8877496,0x627ad4cc0a63322575dcf3b65124946e36215377,CN:Gumi,57,81,Contract
637605cb2ae825a9f88774a3,0x980e9dfeaa8ea715e97827bb770fac8b97090ef1,GDAC 1,43172,0,External Owned Account
637605cb2ae825a9f88774a8,0x9e01312837d20d36a18da03b0d1ea5a6cb015e3f,CN:Sygnum,21,40,Contract
637605cc2ae825a9f88774bb,0xcd953813896f766f1eb9b613610e1752ed6f8395,Orbit Bridge ICON Minter,3312,26295,Contract
637605cc2ae825a9f88774c1,0xe36ea146c05757a38ec1493eea8c878677a9c19a,GC: NFT Bank 1,2,0,Consensus Node
637605cc2ae825a9f88774c2,0xe3d92072d8b9a59a0427485a1b5f459271df457c,GC:Hashkey 1,3,0,Consensus Node
637605cc2ae825a9f88774c3,0xe783fc94fddaeebef7293d6c5864cff280f121e1,GC:LX International 1,3,0,Consensus Node
637605cc2ae825a9f88774c6,0xed6ee8a1877f9582858dbe2509abb0ac33e5f24e,GC:Netmable 1,3,0,Consensus Node
637605cc2ae825a9f88774c7,0xf113ec8c22765d485309cf1d025d1b975245b9f8,GC:Kakao Space,4,0,Consensus Node
637605cd2ae825a9f88774d3,0x1111111254fb6c44bac0bed2854e76f90643097d,1inch : Router,25111,128110,Contract
637605cd2ae825a9f88774d7,0x2828b981cfc96ab33505b32e9b4260b84344f3e1,Bithumb 1,96300,3,External Owned Account
637605cd2ae825a9f88774d9,0x37865a44b8cb07b00b29474758bf5b2dc823d3da,Reward: Alameda Research,16,12,External Owned Account
637605cd2ae825a9f88774db,0x4142cfd3244385e6148ba1226213d47077ea3cf7,Krust Joshua,7,0,External Owned Account
637605cd2ae825a9f88774e1,0x53970bc504cbc41c2a0e6460aef7d86655186284,GC:Hashed-Ozys,4,0,Consensus Node
637605cd2ae825a9f88774f3,0xb3b340abf6d9bda0d37ef70b35d0e7cc15407f2e,GC:Everrich 2,2,0,External Owned Account
637605cd2ae825a9f88774f4,0xbaffc1d4b89fdeadb3dfd0c7f84c3fc0ed5d9ac8,Bithumb 4,195503,0,External Owned Account
637605cf2ae825a9f8877503,0xfd1bd6b2660d703b5a6776a5e335da933d3f6563,CN:Hashkey 2,4644,8349,Contract
637605d02ae825a9f8877526,0x4814831d3d4bb854324ed0b370c8306a95cc9e41,GC:Everrich 3,2,0,External Owned Account
637605d02ae825a9f8877529,0x547d56e938958e3259c73677edb51ab80e399d89,UPbit 2,6247,235,External Owned Account
637605d22ae825a9f8877550,0x9951c3f5afa1ae5549371e8722aff25b9e941664,Reward: GS Retail,80,27,External Owned Account
637605d22ae825a9f8877553,0xa2ba8f7798649a778a1fd66d3035904949fec555,GC:Celltrion 1,3,0,Consensus Node
637605d22ae825a9f8877554,0xa75dd0f10573ac58d274b53ee1a281a7a616252e,CN:Verichains/VNG,23,42,Contract
637605d22ae825a9f887755a,0xb40767d69d511bf8f12bf2d7f253f1b40dfe38fe,CN:Celltrion 1,47,67,Contract
637605d52ae825a9f8877590,0x1a92d5a736d3a8b6d8f6153ba9eb556bae10417a,CN:Jump Crypto-Everstake2,18,48,Contract
637605d52ae825a9f88775a9,0x4cde9d49724c3cb88775a1956516c0ef0be546dd,Klaymore Deployer,5997,5829,External Owned Account
637605d52ae825a9f88775af,0x5ee78209ee1c9b3d332087f76fc6ab2eb71bb240,Reward: KrossLab3,3,5482,Contract
637605d52ae825a9f88775b2,0x72f5d41743a4f6838321f1a37be6859ffa61fb2d,CN:SK Networks,43,68,Contract
637605d52ae825a9f88775b3,0x75239993ac422a4e6a7441d5ab47ed6e91faf306,Reward: Kakao Corp,17,2,External Owned Account
637605d52ae825a9f88775b4,0x758476368db33864b704f41cc63b8460f8e7d39a,Reward: Hashkey,2528,1498,External Owned Account
637605d52ae825a9f88775b6,0x771e24c2daef1c0cb67ce392a4cd3f25d4cf8398,KlayFi Deployer,11895,3093,External Owned Account
637605d62ae825a9f88775b7,0x7880fe25dd0669fffbd82cf6e78c16d69af82a11,GC:Hashkey 2,2,0,External Owned Account
637605d62ae825a9f88775b8,0x79bf6868cb4f7d3dd43d915690f3556669afcf4e,KLAY Genesis 3,1,1,External Owned Account
637605d62ae825a9f88775bd,0x8577ecec279fcab4b47e43d650a176f55a96e7ab,Klip FeePayer,17,0,External Owned Account
637605d72ae825a9f88775dd,0xd9fc5fa552f2d17eb541c07a68095125b15afe7f,Korbit 1,48586,4805,External Owned Account
637605d72ae825a9f88775e4,0xe4f05a66ec68b54a58b17c22107b02e0232cc817,WKLAY 2,5951,10719559,Contract
637605d92ae825a9f8877607,0x39b0f6d8a51aed4ef94cf26598404eedf4c1990e,CN:Ahnlab 2,156,169,Contract
637605da2ae825a9f8877633,0xb04942bce102f21a226f269044f62a31bfc99671,GC:Neoply 2,2,0,External Owned Account
637605da2ae825a9f8877639,0xc0094bf2fb2fad63261afa39a75b3883d91a4c57,GC:Korea Economic Daily 2,2,0,External Owned Account
637605da2ae825a9f887763a,0xc1c7c405145e5d7c84924896daf790ce534a7021,Reward: KrossLab2,30,667,External Owned Account
637605da2ae825a9f887763b,0xc39e93cfe231b1269c57fc8cf577700f7d08c357,CN:LG Electronics,35,58,Contract
637605dc2ae825a9f8877642,0xcd3a382fe4da71d70f5664d99a97cd55d9b317c5,Reward: Korea Economic Daily 2,35,162274,External Owned Account
637605dc2ae825a9f8877644,0xd11dfc2ab34abd3e1abfba80b99aefbd6255c4b8,Multicall2,1,2,Contract
637605dc2ae825a9f8877645,0xd6d7762dd7fadf0512d83d0143685fc85488b64e,GC:Kracker Labs,2,0,Consensus Node
637605dc2ae825a9f8877646,0xd9147a04bba6ed9e77a46635a071c0a2dc67e01f,CN:Netmable 1,21,39,Contract
637605dc2ae825a9f8877647,0xda664b81c13b050f9b0435d0b712218aa8bb1609,CN:Neoply 1,153,208,Contract
637605de2ae825a9f887766c,0x1cdf71aa15f58ce0ae0034302479ef465983f5ba,CN:Wemade 2,80,111,Contract
637605de2ae825a9f8877674,0x36ff2aa21d5c6828ee12cd2bc3de0e987bc0d4e7,GC:Sygnum,3,0,Consensus Node
637605de2ae825a9f8877682,0x5e882a3f5de7991a3463f84b5d229395e64cb3b7,Bithumb 5,293,269,External Owned Account
637605df2ae825a9f887768f,0x84d34f4f83a87596cd3fb6887cff8f17bf5a7b83, Alameda Research 25,0,0,External Owned Account
637605df2ae825a9f8877691,0x9419fa2e3b9eb1158de31be66c586a52f49c5de7,GC:Gumi,2,0,Consensus Node
637605df2ae825a9f8877692,0x9bb0bf13103dfd75877979c5224173562e4ff552,Orbit Bridge Orbit Minter,1590,16424,Contract
637605df2ae825a9f8877693,0x9dd35021d77c1de5ed50b9d788a2f68903a96b96,MEXC 1,276740,46838,External Owned Account
637605df2ae825a9f8877695,0x9f10d38e650184142c1c791e1b8d03e5f14ae47f,GC:MakerDAO,3,0,Consensus Node
637605df2ae825a9f88776a1,0xc85d740a01dacefaf4c2f9e6a6e35c6255a807a2,Wemade FeePayer,10,1,External Owned Account
637605df2ae825a9f88776a2,0xc8f2200d72fb47f4062cb36bc183e948b5db351b,Bithumb 6,184,180,External Owned Account
637605df2ae825a9f88776a4,0xcaab49742bacb49b1cbe27b035cdee5efde1bb5a,CN:Korea Economic Daily 1,68,5335405,Contract
637605e02ae825a9f88776ab,0xdc7dda990c08513962d5ae6dfb195b1f6879bfaf,Reward:Sygnum,112,0,External Owned Account
637605e02ae825a9f88776b2,0xeffa404dac6ba720002974c54d57b20e89b22862,KLAYstation: The Korea Economic Daily,166470,25272029,Contract
637605e12ae825a9f88776bb,0x0000000000000000000000000000000000000000,Null: 0x0000,1096,179368,Consensus Node
637605e12ae825a9f88776bc,0x000000000000000000000000000000000000dead,Null: 0xDead,13,4,External Owned Account
637605e12ae825a9f88776c2,0x0654070bc091446d9ef8735d280e0a251c45cf4c,GC: Sygnum2,2,0,External Owned Account
637605e12ae825a9f88776c3,0x0795aea6948fc1d31809383edc4183b220abd71f,KLAYstation: Jump Crypto-Everstake,1687,35611,Contract
637605e12ae825a9f88776de,0x2add905abfe85d32bcaf412f910f049e905a247b,CN: Sygnum2,11,20,Contract
637605e12ae825a9f88776e6,0x44c33a7acd1f63f53a7740ddf53636a9c45fa3eb,GC:Celltrion 2,2,0,External Owned Account
637605e12ae825a9f88776e8,0x45ed4bf508ca2061a8b4a16e278ea85a8f87a70b,GC:Hi Inc,2,0,Consensus Node
637605e12ae825a9f88776e9,0x473a7a05be7a0afc1510500ee6987b60233b9118,CN:Everrich 3,13,29,Contract
637605e12ae825a9f88776eb,0x49ee0e773da2635ba01a4f808c7f1a833a97c3d9,CN:Kakao Corp 2,39,69,Contract
637605e32ae825a9f88776f1,0x52d41ca72af615a1ac3301b0a93efa222ecc7541,GC:Ground X,4,0,Consensus Node
637605e32ae825a9f88776f2,0x53234eeab953fcf3a6b3346a84f3fd78fc3fec51,CN:Pearl Abyss,45,58026,Contract
637605e42ae825a9f887770d,0x79f83dbb81f6f706be3e8491b14790c30d03e659,Reward: LX International 3,8,16,External Owned Account
637605e42ae825a9f887770e,0x7b065fbb3a9b6e97f2ba788d63700bd4b8b408bc,GC:Korea Economic Daily 1,3,0,Consensus Node
637605e42ae825a9f8877710,0x7b9dc61d4c45fd8bc4667c4b758a9f12253f1070,OpenSea 721 Proxy,2,1282983,Contract
637605e42ae825a9f8877712,0x7dc0b0a1d41c90adf272de4410c307cfe3188615,CN:Kakao Entertainment 2,14,33,Contract
637605e42ae825a9f8877713,0x854ca8508c8be2bb1f3c244045786410cb7d5d0a,KLAY Genesis 5,2843,319,External Owned Account
637605e42ae825a9f8877717,0x99fb17d324fa0e07f23b49d09028ac0919414db6,GC: Baobab GroundX 1,0,0,External Owned Account
637605e52ae825a9f8877730,0xc180ca565b34b5b63877674f5fe647e7da079022,GC:Hanwha Systems,2,0,Consensus Node
637605e82ae825a9f887775f,0x0d0707963952f2fba59dd06f2b425ace40b492fe,Gate.io 1,393885,42531,External Owned Account
637605e82ae825a9f887776b,0x1ddda8ca41f858446cbc5953f8da7f8ee356b922,OKX 2,21063,21041,External Owned Account
637605e82ae825a9f887776e,0x20685d7bbcb07dddbd8dbdc824c31fe2bfb31c92,GC: KrossLab,6,0,Consensus Node
637605e82ae825a9f887776f,0x276199434a04b2607d5e95670e5cb6a7e7f10f3d,Kokoa Deployer,24411,23884,External Owned Account
637605e82ae825a9f8877770,0x278e6332d69eed782784d21802e3504a64a16456,KGF(PoC),341,554,Contract
637605e82ae825a9f8877774,0x2bdd279522b8a0843831fbb94cfbb24a913597c5,GC:LG Electronics,2,0,Consensus Node
637605e82ae825a9f887777a,0x3761313aa02e289eb13a1761ffb4353878fe4e61,Reward: Amorepacific,566,13,External Owned Account
637605e82ae825a9f887777c,0x3f9a2c7b4884f0fa4bb7b1f0f53a491d6c50a819,WEMIX Deployer,103,100,External Owned Account
637605e92ae825a9f8877792,0x56e8c1463c341abf8b168c3079ea41ce8a387e18,GC:Post Voyager (cocone),4,0,Consensus Node
637605e92ae825a9f8877793,0x58f43eee8d6ac46e0b9889b33f6effaa0845b1ba,Reward: Yeahmobi,118,29,External Owned Account
637605e92ae825a9f8877794,0x591dd6776e05411d420a4e97e65fbec19a85f169,Bittrex Controller,5908,41384,Contract
637605e92ae825a9f8877795,0x5b95b38b29aba310cdc71debbba1d56c8711d2d2,CN:Celltrion 2,23,38,Contract
637605eb2ae825a9f88777ab,0x8adb020e1a1de402ee2e91805e771b70e79c4bcb,OKX 1,69565,0,External Owned Account
637605ec2ae825a9f88777bf,0xb67098426cc415991b71fd073a5a3f79c5866dbe,Kakao Wallet,40293822,40293822,Contract
637605ec2ae825a9f88777c9,0xc555a7ee3612b28114999cb2e41e359288c27b3c,Coinone FeePayer,4,1,External Owned Account
637605ec2ae825a9f88777ca,0xc9f10941081dfeaff9be80b7311c449e0f5f94ce,GC:Kakao Pay 2,2,0,External Owned Account
637605ec2ae825a9f88777cd,0xcad45055c3127a93703f6a8f69da81da6d290d94,CN:LX International 1,54,81,Contract
637605ec2ae825a9f88777d5,0xdc465a6ec28bd5b4eb33675b3f55420a86bda3d0,CN:Kakao Entertainment 1,14,31,Contract
637605ee2ae825a9f88777f6,0x0d3aca076712de598df856cecef76dad38f0a75b,CN:Neoply 2,23668,54618,Contract
637605ee2ae825a9f88777f7,0x10f0eaa52a474f0605afbb8c17bb9189e6ed006c,KAS FeePayer,16,0,External Owned Account
637605ee2ae825a9f88777f8,0x1390eab3ad2e674646a8f92460098886409fd57b,GC:Maekyung Media Group,3,0,Consensus Node
637605ee2ae825a9f88777fe,0x1e0049783f008a0085193e00003d00cd54003c71, OpenSea Conduit,1,55026,Contract
637605ef2ae825a9f8877824,0x6981705d156d6fb7bef67914a670de81be233d33,Pala Deployer,3852,3772,External Owned Account
637605ef2ae825a9f8877825,0x69dec71aea51d628b02061cf28525f3e3f15d1d1,CN: Quantstamp,5,18,Contract
637605ef2ae825a9f8877826,0x6e7b5c01b210a6238df15c5a2d8238e22001496a,Definix Deployer,40,32,External Owned Account
637605ef2ae825a9f887782e,0x7d7e63dc7929f70c3ded02d1835a891a96f5a972,Bithumb Deposit,7,1,External Owned Account
637605f02ae825a9f8877849,0xd13fcb553ea18b60390964107ea38a9b0cd879dc,CN: PUBG,8,23,Contract
637605f02ae825a9f887784c,0xdedbab7de9551a2bee78792638af67d59b8675c6,Reward: Post Voyager (cocone),65,35,External Owned Account
637605f02ae825a9f887784f,0xe93a890fb7ec5e993b1a7fd77b0d13a0763eff3d,GC:Neoply 1,3,0,Consensus Node
637605f12ae825a9f8877856,0xf6623192aa096e192024ecb381b04c58df9a6075,GC:PUBG,3,0,Consensus Node
637605f32ae825a9f8877876,0x140ffdf900768f1b6883f4035a6b650c4a3789aa,GC:Jump Crypto-Everstake2,4,0,External Owned Account
637605f32ae825a9f8877887,0x2deb8852c554de6a3144f48243412fd194e539ba,Reward:MakerDAO,34,0,External Owned Account
637605f32ae825a9f8877888,0x2fb205ab8e2b62d1975de7f8c3a82159fb864ed6,WEMIX Reserve 3,2,2,External Owned Account
637605f32ae825a9f8877889,0x2fd3ff6e4ead7430ea25bab5e5b2b073492b7e6e,Reward: Kakao Pay 3,6,0,External Owned Account
637605f32ae825a9f887788b,0x351db3d8c9c6a70f09545ea597be3f9ffde1affc,CN: KrossLab,26,1120,Contract
637605f32ae825a9f887788e,0x3d803a7375a8ee5996f52a8d6725637a89f5bbf8,KIR,161,249,Contract
637605f32ae825a9f8877892,0x416b23ddbf5b663003c0f88192cd4044c30e2332,CN:Amorepacific,30,52,Contract
637605f42ae825a9f88778a3,0x5459c9591c3c3f260eff1a538d84610015332c91,Reward: SK Networks,15,18,External Owned Account
637605f42ae825a9f88778a4,0x54e8bc489cee5ab638920cc80160d8095df846b1,Reward: Neoply ,475,93,External Owned Account
637605f42ae825a9f88778a5,0x554ad0a8ac22b190b802ded54e78e80d46f02815,OpenSea 20 Proxy,2,2592965,Contract
637605f42ae825a9f88778a6,0x5678300abc1f599d865c3525df851b3902c88266,Klaytn Reserve 2,1734,2855,Contract
637605f42ae825a9f88778a7,0x56e31f2b4a806fe00489ac9701509e0c72ac6a3a,CN:LX International 2,10,23,Contract
637605f42ae825a9f88778a8,0x56e3a565e31f8fb0ba0b12c03355518c64372120,GC:Kakao Corp 1,2,0,Consensus Node
637605f42ae825a9f88778aa,0x5768f22232a16e4059cd446398572a881bb1913c,Bithumb FeePayer,23,0,External Owned Account
637605f42ae825a9f88778ae,0x5c4819abfa5967b9a66a13b06538bc22d20def97,WEMIX Reserve 1,174,174,External Owned Account
637605f72ae825a9f88778e4,0xb601ab857ec1ff0abfdb17f7fc354936307be163,CN:Kakao Corp 1,19,36,Contract
637605f72ae825a9f88778e6,0xb9456fd65a6810b19df24832c50b2e61a41867f8,GC:GS Retail,2,0,Consensus Node
637605f72ae825a9f88778e8,0xbca8ffa45cc8e30bbc0522cdf1a1e0ebf540dfe2,GC:Kakao Entertainment 1,3,0,Consensus Node
637605f82ae825a9f88778fd,0xcfc558b6f715865ce16694204dc1f5b824811053,UPbit Controller,517117,2374087,Contract
637605f82ae825a9f88778fe,0xd1f60aa008d328aa699d4fd2741dba147aeb0bb3,Reward: SK Networks 2,9,15,External Owned Account
637605f82ae825a9f887790a,0xe5988841a6bcff92150c33fd43008be6fffd3cc1,CN:Korea Economic Daily 2,15,37,Contract
637605fa2ae825a9f8877917,0xf8e1b55bd421cba9187a60f9729cdb593e39492a,Reward: Swapscanner,4,0,External Owned Account
637605fa2ae825a9f8877918,0xf8e24c48ddeb87713fedaf2dd305e6a7f2fdf09d,Kokonut Deployer,2838,2643,External Owned Account
637605fa2ae825a9f8877919,0xf9ed08df3a60fecfbf3ec822a7279e6bc1130212,GC:Kakao Corp 2,2,0,External Owned Account
637605fa2ae825a9f887791a,0xfb408022696b77a3aa95ba48929e9a8348e50c9f,MARBLEX Deployer,26,23,External Owned Account
637605fb2ae825a9f8877926,0x0af91fa049a7e1894f480bfe5bba20142c6c29a9,Synapse Deployer,120,111,External Owned Account
637605fb2ae825a9f8877929,0x0c0fe4e0236480e16b679ee1fd0c5247f9cf35f0, Alameda Research 22,9,5,External Owned Account
637605fb2ae825a9f887792c,0x1381d45adbcc8f52df274e3ffd6d4bb9341d3b0d,Reward: LG Electronics,4,26,External Owned Account
637605fc2ae825a9f8877966,0xa3b387b7b0dc914a4f106ad645a0ad079d70ebdc,GC:Jump Crypto-Everstake,4,0,Consensus Node
637605fd2ae825a9f887796e,0xb1345ae2015ba594576626192e33588957128cf8,CN:Alameda Research,24,38,Contract
637605fd2ae825a9f8877974,0xbfb84b8e543d88da2987319d620134785f90a9e7,UPbit Sweeper,0,268680,Contract
637605fd2ae825a9f8877975,0xc032c34cb9fe064fe435199e1078dd8756a166b5,GC:SK Networks,2,0,Consensus Node
637605fd2ae825a9f887797b,0xc6a2ad8cc6e4a7e08fc37cc5954be07d499e7654,KLAYswap,44544518,2262657911,Contract
637605fd2ae825a9f887797e,0xcce85eed435b134aede6c562cce5fdc260e445e1,Reward:Pearl Abyss 1,9,0,External Owned Account
637605fd2ae825a9f8877982,0xdd269c2ae784e37560e5fc1c2f2ca2b59453b4d7,CN:Hashkey 1,37,56,Contract
637605fe2ae825a9f887798f,0xf42a1f194d2807e03e5feaddd2247dca5ea41990,Coinone Deposit,34,0,External Owned Account
637605fe2ae825a9f8877991,0xf8c9c61c5e7f2b6219d1c28b94e5cb3cdc802594,GC:Kakao Games,2,0,Consensus Node
637605ff2ae825a9f88779aa,0x2ff5c4efb5174961662666d17ebc7a0bbf1689d2,UPbit 4,25614,0,External Owned Account
637605ff2ae825a9f88779ad,0x4496f06d8bb0b234057f35c4568aa0c2b0e949f3,Bithumb 3,92921,2076,External Owned Account
637605ff2ae825a9f88779c6,0x7b8cffae623338f47b98c53570900450c3926352,CN:Post Voyager (cocone),34,53,Contract
637606022ae825a9f88779e6,0xcb21b21b8948a26259775b88c14a7dda9eb09ce7,GC: Thrust,4,0,Consensus Node
637606042ae825a9f8877a2c,0xcae9ba7d56248165e34a7a3196003eaae3b8ff49,CN: UBP,17,37,Contract
637606052ae825a9f8877a31,0xda5609a74470689a3b51cb53ee3c499b0f54f31a,Reward: Gumi,32,50,External Owned Account
637606052ae825a9f8877a32,0xdc18adf272145ccb2041b852fd4f4e0fab12be86,UPbit 5,36,34,External Owned Account
637606052ae825a9f8877a34,0xe41ea283f655c58156b310c3b850cedee73f3912,Reward: Thrust,86,1638,External Owned Account
637606052ae825a9f8877a38,0xf7136f02bb99f467451ee3369fb9d069d7701d2c,CN:Ground X,122,170,Contract
637606062ae825a9f8877a4f,0x9abc3f6c11dbd83234d6e6b2c373dfc1893f648d,Orbit Bridge Klaytn Vault,59734,197676,Contract
637606062ae825a9f8877a53,0xb122a896ddad5b21e9b1bd977dabab33f3e74427,Reward:Jump Crypto-Everstake,9,2,External Owned Account
637606062ae825a9f8877a55,0xb806f1a275f9b8b2700944b815698e3516aa53c3,CN:Jump Crypto-Everstake,56,8941,Contract
637606062ae825a9f8877a56,0xc11a63fffd55df39901065cc55d3ea792f8d44ff,CN:Everrich 2,150,216,Contract
637606082ae825a9f8877a5d,0x07fae5c2c0b4b315ccacbb8e79a75c1e61ab07c9,GC:Wemade 2,2,0,External Owned Account
637606082ae825a9f8877a85,0x7697d895e9b954bf79bc5eba8180817f6355a0d2,WEMIX Reserve 2,116,116,External Owned Account
637606082ae825a9f8877a89,0x858995d25ec828306e65421a7abf3ffe00b91eec,Reward: UBP,4,1,External Owned Account
637606082ae825a9f8877a8a,0x863d7f7966edaa3f227a43fd2dda51d7a8ecb37e,Bittrex Sweeper,0,4933,Contract
637606092ae825a9f8877a8d,0x9fe4ddee729d50e21e4ebe470092d61501d80a74,Reward: Kracker Labs 2,66,1,External Owned Account
637606092ae825a9f8877a8e,0xa3885c1ce5061f958a891384140860e2ca54d74e,Reward: Kakao Space,8,209447,Contract
637606092ae825a9f8877a9e,0xc8e7053dc17bce47d2317718734ef087be40a023,Reward: AQX,4,0,External Owned Account
637606092ae825a9f8877a9f,0xca742951868353c0d24b92c867e30af8fc36278d,Reward: Kakao Games,64,28,External Owned Account
6376060b2ae825a9f8877abc,0x187c1a8f10a08bd24604efdeb7706bcdce98b8f3, Bittrex 1,11244,10737,External Owned Account
6376060b2ae825a9f8877ad6,0xebd40e6f631dc8d001f3d72acbc2948f2e8384f3,CN: AQX,7,20,Contract
6376060c2ae825a9f8877ae6,0x19aac5f612f524b754ca7e7c41cbfa2e981a4432,WKLAY,10,15,Contract
6376060c2ae825a9f8877ae9,0x1f55eadcc398e9a2d3b8b505c993e19d210786bf,Reward: Kakao Pay,4,0,External Owned Account
6376060c2ae825a9f8877aeb,0x22835801c15abee19f408c78cad1da41cbb6f0da,KLAY Genesis 1,109,147,External Owned Account
6376060d2ae825a9f8877af7,0x42d877932366dcaff751405c3185393f2803962d,Kakao Pay,91375946,91375937,Contract
6376060d2ae825a9f8877af8,0x44d73ba870e665a7fb99c97ea817de979d3eb3ac,Klex Deployer,1512,1603,External Owned Account
6376060d2ae825a9f8877af9,0x44f43a4f78f61e10912dabd2139c9b09f596701d,CN:Maekyung Media Group,61,636768,Contract
6376060d2ae825a9f8877afa,0x4890e25dd9bd64709ebca564a277c9dcf16b4325,Reward: Pearl Abyss 3,4,8,External Owned Account
6376060d2ae825a9f8877afb,0x49163bbc04e07e23a01b1dde6538039ebf9a66a8,Klaybank Deployer,357,332,External Owned Account
6376060d2ae825a9f8877afc,0x4b1ce86cb46d016e4e80d026c70b148cbc55dc8c,CN:Kakao Pay 1,33,56,Contract
6376060d2ae825a9f8877afd,0x4b87df856044f2580ca62f44f6e15121d7ebcc91,Reward:Maekyung Media Group,18,1784655,Contract
6376060d2ae825a9f8877afe,0x4bb37ca32948ac115b654a8e711df1f00781c4f3,CN: Yeahmobi,11,27,Contract
6376060e2ae825a9f8877b0d,0x6edb7a73a3afa981239b58459f897514f5fdefb5,OrbitBridge Deployer,349,370,External Owned Account
6376060e2ae825a9f8877b12,0x79f423d76642e0cde4f84b2001608c18dd26920d,CN:Hanwha Systems,60,89,Contract
6376060e2ae825a9f8877b25,0xba411543b06dca2fcc3730b2b09f40c5bb5cddd5,KLAY Genesis 4,1,1,External Owned Account
6376060f2ae825a9f8877b2e,0xccce30b670cf263df89dd53998c29b87a11ec9a2,WKLAY Deployer,13,10,External Owned Account
637606102ae825a9f8877b44,0xfd844c2fca5e595004b17615f891620d1cb9bbb2,WKLAY 3,1084888,5902805,Contract
637b4e815f7d58a74cfc49e7,0x0000000000000000000000000000000000000400,Address Book,223,1056,Contract
637b4e815f7d58a74cfc49e8,0x000000000000000000000000000000000000dead,Null: 0xDead,13,4,External Owned Account
637b4e815f7d58a74cfc49e9,0x00000000006c3852cbef3e08e8df289169ede581,Opensea Seaport,16881,52979,Contract
637b4e815f7d58a74cfc49ea,0x0039611735b48a1d7227d1df88e16cebc415aa72,OpenSea 1155 Proxy,2,13571,Contract
637b4e815f7d58a74cfc49eb,0x020794caf06273ef3a9b4b0323c72341ec070b15,Reward: Kakao Pay 2,22,26,External Owned Account
637b4e815f7d58a74cfc49ec,0x03497f51c31fe8b402df0bde90fd5a85f87aa943,GC:Ahnlab 1,2,0,Consensus Node
637b4e815f7d58a74cfc49ed,0x04185389ec237dba242888a5a28b5555d011a223,Reward: Binance,6,0,External Owned Account
637b4e815f7d58a74cfc49ee,0x064ce4c3e8409a544ce91245f9f8cfc33bde8925,Reward: Quantstamp,4,0,External Owned Account
637b4e815f7d58a74cfc49ef,0x071086d607198e5e908f6a260adc53a925c0c161,Reward: Gumi,3,0,External Owned Account
637b4e815f7d58a74cfc49f0,0x0795aea6948fc1d31809383edc4183b220abd71f,KLAYstation: Jump Crypto-Everstake,1823,37957,Contract
637b4e815f7d58a74cfc49f1,0x07fae5c2c0b4b315ccacbb8e79a75c1e61ab07c9,GC:Wemade 2,2,0,External Owned Account
637b4e815f7d58a74cfc49f2,0x0af91fa049a7e1894f480bfe5bba20142c6c29a9,Synapse Deployer,120,111,External Owned Account
637b4e815f7d58a74cfc49f3,0x0b7a430594085b078e357be5afa1ef73ef27b602,Reward: Pearl Abyss 2,7,163977,Contract
637b4e815f7d58a74cfc49f4,0x0c0fe4e0236480e16b679ee1fd0c5247f9cf35f0, Alameda Research 22,9,5,External Owned Account
637b4e815f7d58a74cfc49f5,0x0c41cce8ddaea235f97745a13207421dca7340fa,Reward: Verichains/VNG,9,25,External Owned Account
637b4e815f7d58a74cfc49f6,0x0d0707963952f2fba59dd06f2b425ace40b492fe,Gate.io 1,394384,42634,External Owned Account
637b4e815f7d58a74cfc49f7,0x0edf1992d42740affd07da51badc1c76e98a5585,CN:MakerDAO,17,34,Contract
637b4e815f7d58a74cfc49f8,0x10f0eaa52a474f0605afbb8c17bb9189e6ed006c,KAS FeePayer,16,0,External Owned Account
637b4e815f7d58a74cfc49f9,0x1381d45adbcc8f52df274e3ffd6d4bb9341d3b0d,Reward: LG Electronics,4,26,External Owned Account
637b4e815f7d58a74cfc49fa,0x1390eab3ad2e674646a8f92460098886409fd57b,GC:Maekyung Media Group,3,0,Consensus Node
637b4e815f7d58a74cfc49fb,0x140ffdf900768f1b6883f4035a6b650c4a3789aa,GC:Jump Crypto-Everstake2,4,0,External Owned Account
637b4e815f7d58a74cfc49fc,0x169a89b74ec6db558a8a344b641d6f0a7e2f14b3,GC:Kakao Entertainment 2,2,0,External Owned Account
637b4e815f7d58a74cfc49fd,0x179679457f93094a4e7186abcb2089661e92fc22,Reward: Netmable,13,30,External Owned Account
637b4e815f7d58a74cfc49fe,0x186de0382923086f73367bab16af09aeda4e54bf,Reward: Ground X,185,84,External Owned Account
637b4e815f7d58a74cfc49ff,0x1916ce6726e73dca6242b091322f68bbf520497b,CN:Kakao Games,164,262,Contract
637b4e815f7d58a74cfc4a00,0x19aac5f612f524b754ca7e7c41cbfa2e981a4432,WKLAY,10,15,Contract
637b4e815f7d58a74cfc4a01,0x1a147924d0489fccf53471904dc271b9d20157a4,Reward: Jump Crypto-Everstake,3,20095,Contract
637b4e815f7d58a74cfc4a02,0x1a92d5a736d3a8b6d8f6153ba9eb556bae10417a,CN:Jump Crypto-Everstake2,18,48,Contract
637b4e815f7d58a74cfc4a03,0x1cdf71aa15f58ce0ae0034302479ef465983f5ba,CN:Wemade 2,80,111,Contract
637b4e815f7d58a74cfc4a04,0x1cf36ee02ab5b56a51c1fcddc84e0873fdebc812,CN: Swapscanner,11,24,Contract
637b4e815f7d58a74cfc4a05,0x1e0049783f008a0085193e00003d00cd54003c71, OpenSea Conduit,1,60961,Contract
637b4e815f7d58a74cfc4a06,0x1ee5cd9875011a11558c92e7406fcf08ffa0b7f4,CN:Wemade 1,37,60,Contract
637b4e815f7d58a74cfc4a07,0x1f55eadcc398e9a2d3b8b505c993e19d210786bf,Reward: Kakao Pay,4,0,External Owned Account
637b4e815f7d58a74cfc4a08,0x1f604ab080123fe49ccf67d3e4d952f9cd76257d,CN:Ahnlab 1,21,39,Contract
637b4e815f7d58a74cfc4a09,0x20685d7bbcb07dddbd8dbdc824c31fe2bfb31c92,GC: KrossLab,6,0,Consensus Node
637b4e815f7d58a74cfc4a0a,0x2222222ff003b62605ca622a9daab160497e95ba,Giveaway,140,35119,Contract
637b4e815f7d58a74cfc4a0b,0x22835801c15abee19f408c78cad1da41cbb6f0da,KLAY Genesis 1,109,147,External Owned Account
637b4e815f7d58a74cfc4a0c,0x24e593fb29731e54905025c230727dc28d229f77,Reward: Hanwha Systems,16,25,External Owned Account
637b4e815f7d58a74cfc4a0d,0x24f55a6f46f126aa7209c882c275fedb6c108164,KLAY Genesis 2,2,2,External Owned Account
637b4e815f7d58a74cfc4a0e,0x276199434a04b2607d5e95670e5cb6a7e7f10f3d,Kokoa Deployer,24411,23884,External Owned Account
637b4e815f7d58a74cfc4a0f,0x27cbaf98ddfb5c09c787cd6d99a77c5774152b43,GC: Quantstamp,4,0,External Owned Account
637b4e815f7d58a74cfc4a10,0x2888d9dcbd6cefb92a76712eca61391c37df8122,CN:Kakao Pay 2,31,53,Contract
637b4e815f7d58a74cfc4a11,0x2a2f23ff33671361010d357529bdf0adca9416fc,Pangea Deployer,719,716,External Owned Account
637b4e815f7d58a74cfc4a12,0x2b2a7a1d29a203f60e0a964fc64231265a49cd97,Reward: Ahnlab,165,178,External Owned Account
637b4e815f7d58a74cfc4a13,0x2dab13877237aa5d83c45a245b0107904d3165f6,Reward: Kakao Corp 2,4,0,External Owned Account
637b4e815f7d58a74cfc4a14,0x2deb8852c554de6a3144f48243412fd194e539ba,Reward:MakerDAO,34,0,External Owned Account
637b4e815f7d58a74cfc4a15,0x2fd3ff6e4ead7430ea25bab5e5b2b073492b7e6e,Reward: Kakao Pay 3,6,0,External Owned Account
637b4e815f7d58a74cfc4a16,0x322ec78cc94b04410ac43c2c8da7013a294bae3d,KlayCity Deployer,17786,17083,External Owned Account
637b4e815f7d58a74cfc4a17,0x351db3d8c9c6a70f09545ea597be3f9ffde1affc,CN: KrossLab,26,1181,Contract
637b4e815f7d58a74cfc4a18,0x3761313aa02e289eb13a1761ffb4353878fe4e61,Reward: Amorepacific,566,13,External Owned Account
637b4e825f7d58a74cfc4a19,0x37865a44b8cb07b00b29474758bf5b2dc823d3da,Reward: Alameda Research,16,12,External Owned Account
637b4e825f7d58a74cfc4a1a,0x386ca3cb8bb13f48d1a6adc1fb8df09e7bb7f9c8,GC:Kakao Pay 1,5,0,Consensus Node
637b4e825f7d58a74cfc4a1b,0x39b0f6d8a51aed4ef94cf26598404eedf4c1990e,CN:Ahnlab 2,156,169,Contract
637b4e825f7d58a74cfc4a1c,0x40549671ca98cf893976a1ddf318359b5d653248,Reward: PUBG,7,1,External Owned Account
637b4e825f7d58a74cfc4a1d,0x4142cfd3244385e6148ba1226213d47077ea3cf7,Krust Joshua,7,0,External Owned Account
637b4e825f7d58a74cfc4a1e,0x416b23ddbf5b663003c0f88192cd4044c30e2332,CN:Amorepacific,30,52,Contract
637b4e825f7d58a74cfc4a1f,0x41cff281b578f4cf45515d6e4efd535e47e76efd,OpenSea2,657944,3787381,Contract
637b4e825f7d58a74cfc4a20,0x42d877932366dcaff751405c3185393f2803962d,Kakao Pay,91572890,91572881,Contract
637b4e825f7d58a74cfc4a21,0x44f43a4f78f61e10912dabd2139c9b09f596701d,CN:Maekyung Media Group,61,650492,Contract
637b4e825f7d58a74cfc4a22,0x4890e25dd9bd64709ebca564a277c9dcf16b4325,Reward: Pearl Abyss 3,4,8,External Owned Account
637b4e825f7d58a74cfc4a23,0x49163bbc04e07e23a01b1dde6538039ebf9a66a8,Klaybank Deployer,357,332,External Owned Account
637b4e825f7d58a74cfc4a24,0x49ee0e773da2635ba01a4f808c7f1a833a97c3d9,CN:Kakao Corp 2,39,69,Contract
637b4e825f7d58a74cfc4a25,0x4b1ce86cb46d016e4e80d026c70b148cbc55dc8c,CN:Kakao Pay 1,33,56,Contract
637b4e825f7d58a74cfc4a26,0x4b87df856044f2580ca62f44f6e15121d7ebcc91,Reward:Maekyung Media Group,18,1795242,Contract
637b4e825f7d58a74cfc4a27,0x4bb37ca32948ac115b654a8e711df1f00781c4f3,CN: Yeahmobi,11,27,Contract
637b4e825f7d58a74cfc4a28,0x4c1da9c8583aaee0ab9fecd7d5e9a1b559114202,Reward: Kakao Space 3,5,4,External Owned Account
637b4e825f7d58a74cfc4a29,0x4c921e2b4ac183b9b8ab32805ef4da8d59d49eae,GC: Swapscanner,4,0,Consensus Node
637b4e825f7d58a74cfc4a2a,0x4cde9d49724c3cb88775a1956516c0ef0be546dd,Klaymore Deployer,6032,5864,External Owned Account
637b4e825f7d58a74cfc4a2b,0x4fd849eb61bbef4d71352831a1cbddcb1fd98261,CN:Kracker Labs,36,1563,Contract
637b4e825f7d58a74cfc4a2c,0x5216670c7f5624eeb8efc1e56f2cb075a9ce8452,Reward: Kracker Labs,2,916,Contract
637b4e825f7d58a74cfc4a2d,0x52c0f3654e9ac47ba5e64ffcb398be485718a74b,GC: AQX,5,0,Consensus Node
637b4e825f7d58a74cfc4a2e,0x53234eeab953fcf3a6b3346a84f3fd78fc3fec51,CN:Pearl Abyss,45,59284,Contract
637b4e825f7d58a74cfc4a2f,0x53970bc504cbc41c2a0e6460aef7d86655186284,GC:Hashed-Ozys,4,0,Consensus Node
637b4e825f7d58a74cfc4a30,0x5459c9591c3c3f260eff1a538d84610015332c91,Reward: SK Networks,15,18,External Owned Account
637b4e825f7d58a74cfc4a31,0x54e8bc489cee5ab638920cc80160d8095df846b1,Reward: Neoply ,478,93,External Owned Account
637b4e835f7d58a74cfc4a32,0x554ad0a8ac22b190b802ded54e78e80d46f02815,OpenSea 20 Proxy,2,2592965,Contract
637b4e835f7d58a74cfc4a33,0x5678300abc1f599d865c3525df851b3902c88266,Klaytn Reserve 2,1734,2855,Contract
637b4e835f7d58a74cfc4a34,0x56e31f2b4a806fe00489ac9701509e0c72ac6a3a,CN:LX International 2,10,23,Contract
637b4e835f7d58a74cfc4a35,0x56e3a565e31f8fb0ba0b12c03355518c64372120,GC:Kakao Corp 1,2,0,Consensus Node
637b4e835f7d58a74cfc4a36,0x56e8c1463c341abf8b168c3079ea41ce8a387e18,GC:Post Voyager (cocone),4,0,Consensus Node
637b4e835f7d58a74cfc4a37,0x5768f22232a16e4059cd446398572a881bb1913c,Bithumb FeePayer,23,0,External Owned Account
637b4e835f7d58a74cfc4a38,0x58f43eee8d6ac46e0b9889b33f6effaa0845b1ba,Reward: Yeahmobi,118,29,External Owned Account
637b4e835f7d58a74cfc4a39,0x5c66443b9d6ea82039d0ea3e04e8287688dcd4e0,GC:Netmable 2,2,0,External Owned Account
637b4e835f7d58a74cfc4a3a,0x5e17f617b33ee6cde415439bf5d06874baeddbbf,Reward: Everrich,381,108,External Owned Account
637b4e835f7d58a74cfc4a3b,0x5e59db28cef098d5a2e877f84127aed10d7378f2,GC:Pearl Abyss,2,0,Consensus Node
637b4e835f7d58a74cfc4a3c,0x5ee78209ee1c9b3d332087f76fc6ab2eb71bb240,Reward: KrossLab3,3,6034,Contract
637b4e835f7d58a74cfc4a3d,0x5f1dbd747996d8d31e2ab0317be7ffffd155522a,Reward: Kakao Entertainment,16,26,External Owned Account
637b4e835f7d58a74cfc4a3e,0x662a2c18b36b06f21105b019a8795f8d5a38b5b4,Reward:Jump Crypto-Everstake2,12,1664,External Owned Account
637b4e835f7d58a74cfc4a3f,0x66bd38323c9073fbee598b8132cc2e0fdc8b4bd1,CN:Netmable 2,28,42,Contract
637b4e835f7d58a74cfc4a40,0x6873352021fe9226884616dc6f189f289aeb0cc5,GC:Verichains/VNG,2,0,Consensus Node
637b4e835f7d58a74cfc4a41,0x6981705d156d6fb7bef67914a670de81be233d33,Pala Deployer,3852,3772,External Owned Account
637b4e835f7d58a74cfc4a42,0x69dec71aea51d628b02061cf28525f3e3f15d1d1,CN: Quantstamp,5,18,Contract
637b4e835f7d58a74cfc4a43,0x6c9aa5f182f39c3c03c2ea8e9e934d73f876feaf,CN:Binance,20,39,Contract
637b4e835f7d58a74cfc4a44,0x6f6770f1f67f44fb15b335b49581ad6b935d963a,GC:Amorepacific,2,0,Consensus Node
637b4e835f7d58a74cfc4a45,0x70a2bc3cbb9d4a55b070284918b3aad4e7b4143e,CN:GS Retail,36,59,Contract
637b4e835f7d58a74cfc4a46,0x70d85a16d3f3bc13c109cec2604054ecf803afb3,Binance Deposit,10,2,External Owned Account
637b4e835f7d58a74cfc4a47,0x716e48a4393fc064730da40d860bf962e618e33c,Reward: LX International 2,3,2,External Owned Account
637b4e835f7d58a74cfc4a48,0x74f64cb6c2db9e0b270df1d4e563920381aec034,GC:Binance,2,0,Consensus Node
637b4e835f7d58a74cfc4a49,0x75239993ac422a4e6a7441d5ab47ed6e91faf306,Reward: Kakao Corp,17,2,External Owned Account
637b4e835f7d58a74cfc4a4a,0x758476368db33864b704f41cc63b8460f8e7d39a,Reward: Hashkey,2540,1506,External Owned Account
637b4e845f7d58a74cfc4a4b,0x76310015d9e79dafd1d74323135c95784b9d8b64,CN: NFT Bank,15,717,Contract
637b4e845f7d58a74cfc4a4c,0x771e24c2daef1c0cb67ce392a4cd3f25d4cf8398,KlayFi Deployer,11911,3093,External Owned Account
637b4e845f7d58a74cfc4a4d,0x7880fe25dd0669fffbd82cf6e78c16d69af82a11,GC:Hashkey 2,2,0,External Owned Account
637b4e845f7d58a74cfc4a4e,0x79bf6868cb4f7d3dd43d915690f3556669afcf4e,KLAY Genesis 3,1,1,External Owned Account
637b4e845f7d58a74cfc4a4f,0x79f423d76642e0cde4f84b2001608c18dd26920d,CN:Hanwha Systems,60,89,Contract
637b4e845f7d58a74cfc4a50,0x79f83dbb81f6f706be3e8491b14790c30d03e659,Reward: LX International 3,8,16,External Owned Account
637b4e845f7d58a74cfc4a51,0x7b065fbb3a9b6e97f2ba788d63700bd4b8b408bc,GC:Korea Economic Daily 1,3,0,Consensus Node
637b4e845f7d58a74cfc4a52,0x7b8cffae623338f47b98c53570900450c3926352,CN:Post Voyager (cocone),34,53,Contract
637b4e845f7d58a74cfc4a53,0x7b9dc61d4c45fd8bc4667c4b758a9f12253f1070,OpenSea 721 Proxy,2,1282983,Contract
637b4e845f7d58a74cfc4a54,0x7db2dbb1321611be0b7e5a145f3a5a95e3713c1d,Reward: NFT Bank,7,0,External Owned Account
637b4e845f7d58a74cfc4a55,0x7dc0b0a1d41c90adf272de4410c307cfe3188615,CN:Kakao Entertainment 2,14,33,Contract
637b4e845f7d58a74cfc4a56,0x84d34f4f83a87596cd3fb6887cff8f17bf5a7b83, Alameda Research 25,0,0,External Owned Account
637b4e845f7d58a74cfc4a57,0x854ca8508c8be2bb1f3c244045786410cb7d5d0a,KLAY Genesis 5,2843,319,External Owned Account
637b4e845f7d58a74cfc4a58,0x8577ecec279fcab4b47e43d650a176f55a96e7ab,Klip FeePayer,17,0,External Owned Account
637b4e845f7d58a74cfc4a59,0x858995d25ec828306e65421a7abf3ffe00b91eec,Reward: UBP,4,1,External Owned Account
637b4e845f7d58a74cfc4a5a,0x86d2660297c82ac656715e00c979fb5ca65eecc5,Binance 1,1878986,3991,External Owned Account
637b4e845f7d58a74cfc4a5b,0x87102d7d4e813f08c1bb4fbbe513c1f8c4df24a1,AirdropOperatorDeployer,31,63,Contract
637b4e845f7d58a74cfc4a5c,0x8a88a093c05376886754a9b70b0d0a826a5e64be,GC:Yeahmobi,3,0,Consensus Node
637b4e845f7d58a74cfc4a5d,0x926601ab01b1a70ec84af781aeca5e71575e08e8,Klap Deployer,5707,5682,External Owned Account
637b4e845f7d58a74cfc4a5e,0x942a8d56c6330578b1e856c1c972a1ce621ff1c4,Reward: Celltrion,17,39,External Owned Account
637b4e845f7d58a74cfc4a5f,0x962cdb28e662b026df276e5ee7fdf13a06341d68,KLAYstation: FSN,81157,7882332,Contract
637b4e845f7d58a74cfc4a60,0x980e9dfeaa8ea715e97827bb770fac8b97090ef1,GDAC 1,43174,0,External Owned Account
637b4e845f7d58a74cfc4a61,0x9951c3f5afa1ae5549371e8722aff25b9e941664,Reward: GS Retail,80,27,External Owned Account
637b4e845f7d58a74cfc4a62,0x99fb17d324fa0e07f23b49d09028ac0919414db6,GC: Baobab GroundX 1,0,0,External Owned Account
637b4e845f7d58a74cfc4a63,0x9abc3f6c11dbd83234d6e6b2c373dfc1893f648d,Orbit Bridge Klaytn Vault,60242,199399,Contract
637b4e865f7d58a74cfc4a64,0x9f10d38e650184142c1c791e1b8d03e5f14ae47f,GC:MakerDAO,3,0,Consensus Node
637b4e865f7d58a74cfc4a65,0x9fe4ddee729d50e21e4ebe470092d61501d80a74,Reward: Kracker Labs 2,66,1,External Owned Account
637b4e865f7d58a74cfc4a66,0xa3885c1ce5061f958a891384140860e2ca54d74e,Reward: Kakao Space,8,213104,Contract
637b4e865f7d58a74cfc4a67,0xa3b387b7b0dc914a4f106ad645a0ad079d70ebdc,GC:Jump Crypto-Everstake,4,0,Consensus Node
637b4e865f7d58a74cfc4a68,0xa75dd0f10573ac58d274b53ee1a281a7a616252e,CN:Verichains/VNG,23,42,Contract
637b4e865f7d58a74cfc4a69,0xa7742fc43c4cc193a4a1671cba589aa3c4133f7c,Reward: LX International,25,14,External Owned Account
637b4e865f7d58a74cfc4a6a,0xa7886fbc6d33dd19c090fd48337a409941f75e1f,Reward: Kracker Labs3,3,9530,Contract
637b4e865f7d58a74cfc4a6b,0xa8f51f43d6d19bdf0eb7df5e279c8058a64d20e4,CN:Kakao Space,51,80850,Contract
637b4e865f7d58a74cfc4a6c,0xac7f6f8a63733877a78917dc798ed7693095be7b,Reward: Korea Economic Daily,4,15221034,Contract
637b4e865f7d58a74cfc4a6d,0xadb287e1f8405f085c740e791a3914f9b07acae0,Reward: Hashed-Ozys,5,27727805,Contract
637b4e865f7d58a74cfc4a6e,0xaf7e157d2d7b571abe7161bf193bb697706e2172,GC:Ahnlab 2,2,0,External Owned Account
637b4e865f7d58a74cfc4a6f,0xafd197d383453b08b7c1509bdb4b6afee9f66578,Klaytn Reserve 1,29,41,Contract
637b4e865f7d58a74cfc4a70,0xb122a896ddad5b21e9b1bd977dabab33f3e74427,Reward:Jump Crypto-Everstake,9,2,External Owned Account
637b4e865f7d58a74cfc4a71,0xb1345ae2015ba594576626192e33588957128cf8,CN:Alameda Research,25,39,Contract
637b4e865f7d58a74cfc4a72,0xb601ab857ec1ff0abfdb17f7fc354936307be163,CN:Kakao Corp 1,19,36,Contract
637b4e865f7d58a74cfc4a73,0xb67098426cc415991b71fd073a5a3f79c5866dbe,Kakao Wallet,40293822,40293822,Contract
637b4e865f7d58a74cfc4a74,0xb806f1a275f9b8b2700944b815698e3516aa53c3,CN:Jump Crypto-Everstake,56,9600,Contract
637b4e865f7d58a74cfc4a75,0xb9456fd65a6810b19df24832c50b2e61a41867f8,GC:GS Retail,2,0,Consensus Node
637b4e865f7d58a74cfc4a76,0xba411543b06dca2fcc3730b2b09f40c5bb5cddd5,KLAY Genesis 4,1,1,External Owned Account
637b4e865f7d58a74cfc4a77,0xbc8d2fd8c2ab4b76306d9d8b9f5721b13f239220,Reward: Kakao Space 2,4,26,External Owned Account
637b4e865f7d58a74cfc4a78,0xbca8ffa45cc8e30bbc0522cdf1a1e0ebf540dfe2,GC:Kakao Entertainment 1,3,0,Consensus Node
637b4e865f7d58a74cfc4a79,0xbd2bdd78de340ed82f99120d332acf36dc0a34ea,Reward: FSN 2,68,29,External Owned Account
637b4e865f7d58a74cfc4a7a,0xbe02aba56bae1624e2c4f029e3a79308e2a19e98,Kakao Pay 2,91572895,91572884,External Owned Account
637b4e865f7d58a74cfc4a7b,0xc0094bf2fb2fad63261afa39a75b3883d91a4c57,GC:Korea Economic Daily 2,2,0,External Owned Account
637b4e865f7d58a74cfc4a7c,0xc109f40f688eb75711f51dac0b759957fe7d8ec7,OpenSea,365,2593391,Contract
637b4e875f7d58a74cfc4a7d,0xc180ca565b34b5b63877674f5fe647e7da079022,GC:Hanwha Systems,2,0,Consensus Node
637b4e875f7d58a74cfc4a7e,0xc1c7c405145e5d7c84924896daf790ce534a7021,Reward: KrossLab2,30,700,External Owned Account
637b4e875f7d58a74cfc4a7f,0xc555a7ee3612b28114999cb2e41e359288c27b3c,Coinone FeePayer,4,1,External Owned Account
637b4e875f7d58a74cfc4a80,0xc5b67d88c3a26fcee67fc542009d8526f6b4c8a3,Reward: Hi Inc,14,2,External Owned Account
637b4e875f7d58a74cfc4a81,0xc5ed2333f8a2c351fca35e5ebadb2a82f5d254c3, Alameda Research 6,20,18,External Owned Account
637b4e875f7d58a74cfc4a82,0xc6a2ad8cc6e4a7e08fc37cc5954be07d499e7654,KLAYswap,44574013,2267027715,Contract
637b4e875f7d58a74cfc4a83,0xc85d740a01dacefaf4c2f9e6a6e35c6255a807a2,Wemade FeePayer,10,1,External Owned Account
637b4e875f7d58a74cfc4a84,0xc8e7053dc17bce47d2317718734ef087be40a023,Reward: AQX,4,0,External Owned Account
637b4e875f7d58a74cfc4a85,0xc9f10941081dfeaff9be80b7311c449e0f5f94ce,GC:Kakao Pay 2,2,0,External Owned Account
637b4e875f7d58a74cfc4a86,0xca742951868353c0d24b92c867e30af8fc36278d,Reward: Kakao Games,64,28,External Owned Account
637b4e875f7d58a74cfc4a87,0xcaab49742bacb49b1cbe27b035cdee5efde1bb5a,CN:Korea Economic Daily 1,68,5337201,Contract
637b4e875f7d58a74cfc4a88,0xcad45055c3127a93703f6a8f69da81da6d290d94,CN:LX International 1,54,81,Contract
637b4e875f7d58a74cfc4a89,0xccce30b670cf263df89dd53998c29b87a11ec9a2,WKLAY Deployer,13,10,External Owned Account
637b4e875f7d58a74cfc4a8a,0xcce85eed435b134aede6c562cce5fdc260e445e1,Reward:Pearl Abyss 1,9,0,External Owned Account
637b4e875f7d58a74cfc4a8b,0xcd3a382fe4da71d70f5664d99a97cd55d9b317c5,Reward: Korea Economic Daily 2,36,162376,External Owned Account
637b4e875f7d58a74cfc4a8c,0xd11dfc2ab34abd3e1abfba80b99aefbd6255c4b8,Multicall2,1,2,Contract
637b4e875f7d58a74cfc4a8d,0xd1f60aa008d328aa699d4fd2741dba147aeb0bb3,Reward: SK Networks 2,9,15,External Owned Account
637b4e875f7d58a74cfc4a8e,0xd6d7762dd7fadf0512d83d0143685fc85488b64e,GC:Kracker Labs,2,0,Consensus Node
637b4e875f7d58a74cfc4a8f,0xd9147a04bba6ed9e77a46635a071c0a2dc67e01f,CN:Netmable 1,21,39,Contract
637b4e875f7d58a74cfc4a90,0xda5609a74470689a3b51cb53ee3c499b0f54f31a,Reward: Gumi,33,51,External Owned Account
637b4e875f7d58a74cfc4a91,0xdc465a6ec28bd5b4eb33675b3f55420a86bda3d0,CN:Kakao Entertainment 1,14,31,Contract
637b4e875f7d58a74cfc4a92,0xdc7dda990c08513962d5ae6dfb195b1f6879bfaf,Reward:Sygnum,112,0,External Owned Account
637b4e875f7d58a74cfc4a93,0xdd269c2ae784e37560e5fc1c2f2ca2b59453b4d7,CN:Hashkey 1,37,56,Contract
637b4e875f7d58a74cfc4a94,0xdedbab7de9551a2bee78792638af67d59b8675c6,Reward: Post Voyager (cocone),65,35,External Owned Account
637b4e875f7d58a74cfc4a95,0xdff9e057f12c54ec49e02be401018e8334b8ba16,Swapscanner Deployer,5,2,External Owned Account
637b4e885f7d58a74cfc4a96,0xe21ec87edfaa34070455ebd85072e4e3413dbea6,Reward: NFT Bank2,7,735,Contract
637b4e885f7d58a74cfc4a97,0xe2e2d9e31d7e1cc1178fe0d1c5950f6c809816a3,Portal Deployer,138,138,External Owned Account
637b4e885f7d58a74cfc4a98,0xe33337cb6fbb68954fe1c3fde2b21f56586632cd,KLAYstation: Hashed-Ozys,702570,50605162,Contract
637b4e885f7d58a74cfc4a99,0xe36ea146c05757a38ec1493eea8c878677a9c19a,GC: NFT Bank 1,2,0,Consensus Node
637b4e885f7d58a74cfc4a9a,0xe3d49ffc285c668425b2966b683776f632859efa,Reward: FSN,4,4840356,Contract
637b4e885f7d58a74cfc4a9b,0xe3d92072d8b9a59a0427485a1b5f459271df457c,GC:Hashkey 1,3,0,Consensus Node
637b4e885f7d58a74cfc4a9c,0xe41ea283f655c58156b310c3b850cedee73f3912,Reward: Thrust,89,1678,External Owned Account
637b4e885f7d58a74cfc4a9d,0xe4f05a66ec68b54a58b17c22107b02e0232cc817,WKLAY 2,5983,10776973,Contract
637b4e885f7d58a74cfc4a9e,0xe5988841a6bcff92150c33fd43008be6fffd3cc1,CN:Korea Economic Daily 2,15,37,Contract
637b4e885f7d58a74cfc4a9f,0xe5d0ef77aed07c302634dc370537126a2cd26590,Alameda Research 8,17,15,External Owned Account
637b4e885f7d58a74cfc4aa0,0xe783fc94fddaeebef7293d6c5864cff280f121e1,GC:LX International 1,3,0,Consensus Node
637b4e885f7d58a74cfc4aa1,0xebd40e6f631dc8d001f3d72acbc2948f2e8384f3,CN: AQX,7,20,Contract
637b4e885f7d58a74cfc4aa2,0xec6c1cede510be308f0fdbbc8dbdf238829bdb34,GC:Wemade 1,4,0,Consensus Node
637b4e885f7d58a74cfc4aa3,0xed0e18f99b684009fcf44c80e471717335ac49c9,ClaimSwap Deployer,1647,1563,External Owned Account
637b4e885f7d58a74cfc4aa4,0xed6ee8a1877f9582858dbe2509abb0ac33e5f24e,GC:Netmable 1,3,0,Consensus Node
637b4e885f7d58a74cfc4aa5,0xeffa404dac6ba720002974c54d57b20e89b22862,KLAYstation: The Korea Economic Daily,166606,25280119,Contract
637b4e885f7d58a74cfc4aa6,0xf113ec8c22765d485309cf1d025d1b975245b9f8,GC:Kakao Space,4,0,Consensus Node
637b4e885f7d58a74cfc4aa7,0xf3ea7de2ea224344461d25d5ebc769d51948057d,KLAYSwap Deployer,11,7,External Owned Account
637b4e885f7d58a74cfc4aa8,0xf50782a24afcb26acb85d086cf892bfffb5731b5,SwapScanner,1144297,17446531,Contract
637b4e885f7d58a74cfc4aa9,0xf52d509dade0d5d82da429e9d45d617e5416eb09,Klaymeta Deployer,37,35,External Owned Account
637b4e885f7d58a74cfc4aaa,0xf786c3720a10cb48c8f12d0ac2086dcf227c7cde,Reward: Wemade,44,10,External Owned Account
637b4e885f7d58a74cfc4aab,0xf8b8a5eac80689b4386de3c223c4f50d3b971a56,GC:LX International 2,2,0,External Owned Account
637b4e885f7d58a74cfc4aac,0xf8be3f1c1e64e472cf623f0b0e19b4517be9f204,KLEVA Deployer,1103,1092,External Owned Account
637b4e885f7d58a74cfc4aad,0xf8c9c61c5e7f2b6219d1c28b94e5cb3cdc802594,GC:Kakao Games,2,0,Consensus Node
637b4e885f7d58a74cfc4aae,0xf8e1b55bd421cba9187a60f9729cdb593e39492a,Reward: Swapscanner,4,0,External Owned Account
637b4e895f7d58a74cfc4aaf,0xf9ed08df3a60fecfbf3ec822a7279e6bc1130212,GC:Kakao Corp 2,2,0,External Owned Account
637b4e895f7d58a74cfc4ab0,0xfb408022696b77a3aa95ba48929e9a8348e50c9f,MARBLEX Deployer,26,23,External Owned Account
637b4e895f7d58a74cfc4ab1,0xfb416e2a714a5d1e034beacf0646a36876b72765,GC:Alameda Research,3,0,Consensus Node
637b4e895f7d58a74cfc4ab2,0xfb9054bc52639579ba694fb3ac00259f561841ce,Reward: UBP 2,28,19,External Owned Account
637b4e895f7d58a74cfc4ab3,0xfc0b19569867a6a9324b65fecb6f1b43bb16ccf3,MulticallExtended,0,1,Contract
637b4e895f7d58a74cfc4ab4,0xfc2a7ec29143621c7e0e651ee2bca428a95c7af4,Reward: Wemade 2,239,238,External Owned Account
637b4e895f7d58a74cfc4ab5,0xfc37e31fe3b1019f5be58cb826e5d7b08f9b2e35,Reward: KrossLab,4,0,External Owned Account
637b4e895f7d58a74cfc4ab6,0xfd1bd6b2660d703b5a6776a5e335da933d3f6563,CN:Hashkey 2,4658,8369,Contract
637b4e895f7d58a74cfc4ab7,0xfd844c2fca5e595004b17615f891620d1cb9bbb2,WKLAY 3,1085228,5904849,Contract
637b4e895f7d58a74cfc4ab8,0xfda6aaaf53d706eb2099c5637d5e4199dd5d4138,CN:Hashed-Ozys,28,10781659,Contract
637b4e895f7d58a74cfc4ab9,0xffb11e6e660f76e54cffee6f7eaac36221cc42c4,Reward: Amorepacific 2,8,12,External Owned Account
637b4e8a5f7d58a74cfc4aba,0x0000000000000000000000000000000000000400,Address Book,223,1056,Contract
637b4e8a5f7d58a74cfc4abb,0x0051ef9259c7ec0644a80e866ab748a2f30841b3,Bybit 1,408162,6506,External Owned Account
637b4e8a5f7d58a74cfc4abc,0x03497f51c31fe8b402df0bde90fd5a85f87aa943,GC:Ahnlab 1,2,0,Consensus Node
637b4e8a5f7d58a74cfc4abd,0x04185389ec237dba242888a5a28b5555d011a223,Reward: Binance,6,0,External Owned Account
637b4e8a5f7d58a74cfc4abe,0x0b400517344fa7f529fd1c9ef11544868a12c578,Bithumb 2,165443,53,External Owned Account
637b4e8a5f7d58a74cfc4abf,0x0b7a430594085b078e357be5afa1ef73ef27b602,Reward: Pearl Abyss 2,7,163977,Contract
637b4e8a5f7d58a74cfc4ac0,0x1782834bf8847e235f21f2c1f13fca4d5dff6621,GC:UBP,2,0,Consensus Node
637b4e8a5f7d58a74cfc4ac1,0x179679457f93094a4e7186abcb2089661e92fc22,Reward: Netmable,13,30,External Owned Account
637b4e8a5f7d58a74cfc4ac2,0x187c1a8f10a08bd24604efdeb7706bcdce98b8f3, Bittrex 1,11268,10758,External Owned Account
637b4e8a5f7d58a74cfc4ac3,0x1f604ab080123fe49ccf67d3e4d952f9cd76257d,CN:Ahnlab 1,21,39,Contract
637b4e8a5f7d58a74cfc4ac4,0x20685d7bbcb07dddbd8dbdc824c31fe2bfb31c92,GC: KrossLab,6,0,Consensus Node
637b4e8a5f7d58a74cfc4ac5,0x2828b981cfc96ab33505b32e9b4260b84344f3e1,Bithumb 1,97040,3,External Owned Account
637b4e8a5f7d58a74cfc4ac6,0x2b2a7a1d29a203f60e0a964fc64231265a49cd97,Reward: Ahnlab,165,178,External Owned Account
637b4e8a5f7d58a74cfc4ac7,0x2ff5c4efb5174961662666d17ebc7a0bbf1689d2,UPbit 4,25968,0,External Owned Account
637b4e8a5f7d58a74cfc4ac8,0x351db3d8c9c6a70f09545ea597be3f9ffde1affc,CN: KrossLab,26,1181,Contract
637b4e8a5f7d58a74cfc4ac9,0x39b0f6d8a51aed4ef94cf26598404eedf4c1990e,CN:Ahnlab 2,156,169,Contract
637b4e8a5f7d58a74cfc4aca,0x40549671ca98cf893976a1ddf318359b5d653248,Reward: PUBG,7,1,External Owned Account
637b4e8a5f7d58a74cfc4acb,0x4496f06d8bb0b234057f35c4568aa0c2b0e949f3,Bithumb 3,92921,2076,External Owned Account
637b4e8a5f7d58a74cfc4acc,0x4890e25dd9bd64709ebca564a277c9dcf16b4325,Reward: Pearl Abyss 3,4,8,External Owned Account
637b4e8a5f7d58a74cfc4acd,0x49163bbc04e07e23a01b1dde6538039ebf9a66a8,Klaybank Deployer,357,332,External Owned Account
637b4e8a5f7d58a74cfc4ace,0x4bb37ca32948ac115b654a8e711df1f00781c4f3,CN: Yeahmobi,11,27,Contract
637b4e8a5f7d58a74cfc4acf,0x4fd849eb61bbef4d71352831a1cbddcb1fd98261,CN:Kracker Labs,36,1563,Contract
637b4e8a5f7d58a74cfc4ad0,0x5216670c7f5624eeb8efc1e56f2cb075a9ce8452,Reward: Kracker Labs,2,916,Contract
637b4e8a5f7d58a74cfc4ad1,0x53234eeab953fcf3a6b3346a84f3fd78fc3fec51,CN:Pearl Abyss,45,59284,Contract
637b4e8a5f7d58a74cfc4ad2,0x547d56e938958e3259c73677edb51ab80e399d89,UPbit 2,6247,235,External Owned Account
637b4e8a5f7d58a74cfc4ad3,0x5768f22232a16e4059cd446398572a881bb1913c,Bithumb FeePayer,23,0,External Owned Account
637b4e8a5f7d58a74cfc4ad4,0x58f43eee8d6ac46e0b9889b33f6effaa0845b1ba,Reward: Yeahmobi,118,29,External Owned Account
637b4e8a5f7d58a74cfc4ad5,0x591dd6776e05411d420a4e97e65fbec19a85f169,Bittrex Controller,5908,41432,Contract
637b4e8a5f7d58a74cfc4ad6,0x5c66443b9d6ea82039d0ea3e04e8287688dcd4e0,GC:Netmable 2,2,0,External Owned Account
637b4e8a5f7d58a74cfc4ad7,0x5e59db28cef098d5a2e877f84127aed10d7378f2,GC:Pearl Abyss,2,0,Consensus Node
637b4e8a5f7d58a74cfc4ad8,0x5e882a3f5de7991a3463f84b5d229395e64cb3b7,Bithumb 5,293,269,External Owned Account
637b4e8a5f7d58a74cfc4ad9,0x5ee78209ee1c9b3d332087f76fc6ab2eb71bb240,Reward: KrossLab3,3,6034,Contract
637b4e8a5f7d58a74cfc4ada,0x60070f5d2e1c1001400a04f152e7abd43410f7b9,Orbit Bridge ETH Minter,144905,1144818,Contract
637b4e8a5f7d58a74cfc4adb,0x66bd38323c9073fbee598b8132cc2e0fdc8b4bd1,CN:Netmable 2,28,42,Contract
637b4e8a5f7d58a74cfc4adc,0x6c9aa5f182f39c3c03c2ea8e9e934d73f876feaf,CN:Binance,20,39,Contract
637b4e8a5f7d58a74cfc4add,0x6edb7a73a3afa981239b58459f897514f5fdefb5,OrbitBridge Deployer,349,370,External Owned Account
637b4e8a5f7d58a74cfc4ade,0x70d85a16d3f3bc13c109cec2604054ecf803afb3,Binance Deposit,10,2,External Owned Account
637b4e8a5f7d58a74cfc4adf,0x74f64cb6c2db9e0b270df1d4e563920381aec034,GC:Binance,2,0,Consensus Node
637b4e8a5f7d58a74cfc4ae0,0x76310015d9e79dafd1d74323135c95784b9d8b64,CN: NFT Bank,15,717,Contract
637b4e8a5f7d58a74cfc4ae1,0x7d7e63dc7929f70c3ded02d1835a891a96f5a972,Bithumb Deposit,7,1,External Owned Account
637b4e8a5f7d58a74cfc4ae2,0x7db2dbb1321611be0b7e5a145f3a5a95e3713c1d,Reward: NFT Bank,7,0,External Owned Account
637b4e8a5f7d58a74cfc4ae3,0x82aee37152c4d516bc5f472b4ad958c369c045be,UPbit 3,751351,744724,External Owned Account
637b4e8a5f7d58a74cfc4ae4,0x858995d25ec828306e65421a7abf3ffe00b91eec,Reward: UBP,4,1,External Owned Account
637b4e8a5f7d58a74cfc4ae5,0x863d7f7966edaa3f227a43fd2dda51d7a8ecb37e,Bittrex Sweeper,0,4941,Contract
637b4e8a5f7d58a74cfc4ae6,0x86d2660297c82ac656715e00c979fb5ca65eecc5,Binance 1,1878986,3991,External Owned Account
637b4e8a5f7d58a74cfc4ae7,0x8a88a093c05376886754a9b70b0d0a826a5e64be,GC:Yeahmobi,3,0,Consensus Node
637b4e8a5f7d58a74cfc4ae8,0x99fb17d324fa0e07f23b49d09028ac0919414db6,GC: Baobab GroundX 1,0,0,External Owned Account
637b4e8a5f7d58a74cfc4ae9,0x9abc3f6c11dbd83234d6e6b2c373dfc1893f648d,Orbit Bridge Klaytn Vault,60242,199399,Contract
637b4e8a5f7d58a74cfc4aea,0x9bb0bf13103dfd75877979c5224173562e4ff552,Orbit Bridge Orbit Minter,1595,16477,Contract
637b4e8a5f7d58a74cfc4aeb,0x9fe4ddee729d50e21e4ebe470092d61501d80a74,Reward: Kracker Labs 2,66,1,External Owned Account
637b4e8b5f7d58a74cfc4aec,0xa7886fbc6d33dd19c090fd48337a409941f75e1f,Reward: Kracker Labs3,3,9530,Contract
637b4e8b5f7d58a74cfc4aed,0xaf7e157d2d7b571abe7161bf193bb697706e2172,GC:Ahnlab 2,2,0,External Owned Account
637b4e8b5f7d58a74cfc4aee,0xb0a83941058b109bd0543fa26d22efb8a2d0f431,Orbit Bridge BSC Minter,108410,887734,Contract
637b4e8b5f7d58a74cfc4aef,0xb2a4eb09e251bf72cb57cd675a839953fe393d0c,Bittrex 2,5907,5907,External Owned Account
637b4e8b5f7d58a74cfc4af0,0xba46c9c6d73b7ef8059785ad0c3af4f8e8a94e8c,UPbit 1,99800,90544,External Owned Account
637b4e8b5f7d58a74cfc4af1,0xbaffc1d4b89fdeadb3dfd0c7f84c3fc0ed5d9ac8,Bithumb 4,195503,0,External Owned Account
637b4e8b5f7d58a74cfc4af2,0xbfb84b8e543d88da2987319d620134785f90a9e7,UPbit Sweeper,0,268680,Contract
637b4e8b5f7d58a74cfc4af3,0xc1c7c405145e5d7c84924896daf790ce534a7021,Reward: KrossLab2,30,700,External Owned Account
637b4e8b5f7d58a74cfc4af4,0xc8f2200d72fb47f4062cb36bc183e948b5db351b,Bithumb 6,184,180,External Owned Account
637b4e8b5f7d58a74cfc4af5,0xcae9ba7d56248165e34a7a3196003eaae3b8ff49,CN: UBP,17,37,Contract
637b4e8b5f7d58a74cfc4af6,0xcce85eed435b134aede6c562cce5fdc260e445e1,Reward:Pearl Abyss 1,9,0,External Owned Account
637b4e8b5f7d58a74cfc4af7,0xcd953813896f766f1eb9b613610e1752ed6f8395,Orbit Bridge ICON Minter,3314,26305,Contract
637b4e8b5f7d58a74cfc4af8,0xcfc558b6f715865ce16694204dc1f5b824811053,UPbit Controller,517117,2374087,Contract
637b4e8b5f7d58a74cfc4af9,0xd13fcb553ea18b60390964107ea38a9b0cd879dc,CN: PUBG,8,23,Contract
637b4e8b5f7d58a74cfc4afa,0xd6d7762dd7fadf0512d83d0143685fc85488b64e,GC:Kracker Labs,2,0,Consensus Node
637b4e8b5f7d58a74cfc4afb,0xd9147a04bba6ed9e77a46635a071c0a2dc67e01f,CN:Netmable 1,21,39,Contract
637b4e8b5f7d58a74cfc4afc,0xd9fc5fa552f2d17eb541c07a68095125b15afe7f,Korbit 1,48758,4805,External Owned Account
637b4e8b5f7d58a74cfc4afd,0xdc18adf272145ccb2041b852fd4f4e0fab12be86,UPbit 5,36,34,External Owned Account
637b4e8b5f7d58a74cfc4afe,0xe21ec87edfaa34070455ebd85072e4e3413dbea6,Reward: NFT Bank2,7,735,Contract
637b4e8b5f7d58a74cfc4aff,0xe36ea146c05757a38ec1493eea8c878677a9c19a,GC: NFT Bank 1,2,0,Consensus Node
637b4e8b5f7d58a74cfc4b00,0xed6ee8a1877f9582858dbe2509abb0ac33e5f24e,GC:Netmable 1,3,0,Consensus Node
637b4e8b5f7d58a74cfc4b01,0xf6623192aa096e192024ecb381b04c58df9a6075,GC:PUBG,3,0,Consensus Node
637b4e8b5f7d58a74cfc4b02,0xfb408022696b77a3aa95ba48929e9a8348e50c9f,MARBLEX Deployer,26,23,External Owned Account
637b4e8b5f7d58a74cfc4b03,0xfb9054bc52639579ba694fb3ac00259f561841ce,Reward: UBP 2,28,19,External Owned Account
637b4e8b5f7d58a74cfc4b04,0xfc37e31fe3b1019f5be58cb826e5d7b08f9b2e35,Reward: KrossLab,4,0,External Owned Account
637b4e8d5f7d58a74cfc4b05,0x03497f51c31fe8b402df0bde90fd5a85f87aa943,GC:Ahnlab 1,2,0,Consensus Node
637b4e8d5f7d58a74cfc4b06,0x04185389ec237dba242888a5a28b5555d011a223,Reward: Binance,6,0,External Owned Account
637b4e8d5f7d58a74cfc4b07,0x0654070bc091446d9ef8735d280e0a251c45cf4c,GC: Sygnum2,2,0,External Owned Account
637b4e8d5f7d58a74cfc4b08,0x0795aea6948fc1d31809383edc4183b220abd71f,KLAYstation: Jump Crypto-Everstake,1823,37957,Contract
637b4e8d5f7d58a74cfc4b09,0x07fae5c2c0b4b315ccacbb8e79a75c1e61ab07c9,GC:Wemade 2,2,0,External Owned Account
637b4e8d5f7d58a74cfc4b0a,0x0a5e4618d91c9ba77349c4064a04792a35a56b42,CN:Everrich 1,521,660,Contract
637b4e8d5f7d58a74cfc4b0b,0x0b59cae1f03534209fdb9ddf5ea65b310cd7060c,GC:FSN,4,0,Consensus Node
637b4e8d5f7d58a74cfc4b0c,0x0c0fe4e0236480e16b679ee1fd0c5247f9cf35f0, Alameda Research 22,9,5,External Owned Account
637b4e8d5f7d58a74cfc4b0d,0x0c41cce8ddaea235f97745a13207421dca7340fa,Reward: Verichains/VNG,9,25,External Owned Account
637b4e8d5f7d58a74cfc4b0e,0x0d3aca076712de598df856cecef76dad38f0a75b,CN:Neoply 2,23733,54730,Contract
637b4e8d5f7d58a74cfc4b0f,0x0edf1992d42740affd07da51badc1c76e98a5585,CN:MakerDAO,17,34,Contract
637b4e8d5f7d58a74cfc4b10,0x1111111254fb6c44bac0bed2854e76f90643097d,1inch : Router,25552,130406,Contract
637b4e8d5f7d58a74cfc4b11,0x1381d45adbcc8f52df274e3ffd6d4bb9341d3b0d,Reward: LG Electronics,4,26,External Owned Account
637b4e8d5f7d58a74cfc4b12,0x1390eab3ad2e674646a8f92460098886409fd57b,GC:Maekyung Media Group,3,0,Consensus Node
637b4e8d5f7d58a74cfc4b13,0x140ffdf900768f1b6883f4035a6b650c4a3789aa,GC:Jump Crypto-Everstake2,4,0,External Owned Account
637b4e8d5f7d58a74cfc4b14,0x169a89b74ec6db558a8a344b641d6f0a7e2f14b3,GC:Kakao Entertainment 2,2,0,External Owned Account
637b4e8d5f7d58a74cfc4b15,0x16c192585a0ab24b552783b4bf7d8dc9f6855c35,GC:Everrich 1,2,0,Consensus Node
637b4e8d5f7d58a74cfc4b16,0x1782834bf8847e235f21f2c1f13fca4d5dff6621,GC:UBP,2,0,Consensus Node
637b4e8d5f7d58a74cfc4b17,0x1916ce6726e73dca6242b091322f68bbf520497b,CN:Kakao Games,164,262,Contract
637b4e8d5f7d58a74cfc4b18,0x1a147924d0489fccf53471904dc271b9d20157a4,Reward: Jump Crypto-Everstake,3,20095,Contract
637b4e8d5f7d58a74cfc4b19,0x1a92d5a736d3a8b6d8f6153ba9eb556bae10417a,CN:Jump Crypto-Everstake2,18,48,Contract
637b4e8d5f7d58a74cfc4b1a,0x1cdf71aa15f58ce0ae0034302479ef465983f5ba,CN:Wemade 2,80,111,Contract
637b4e8d5f7d58a74cfc4b1b,0x1cf36ee02ab5b56a51c1fcddc84e0873fdebc812,CN: Swapscanner,11,24,Contract
637b4e8d5f7d58a74cfc4b1c,0x1e0049783f008a0085193e00003d00cd54003c71, OpenSea Conduit,1,60961,Contract
637b4e8d5f7d58a74cfc4b1d,0x1ee5cd9875011a11558c92e7406fcf08ffa0b7f4,CN:Wemade 1,37,60,Contract
637b4e8d5f7d58a74cfc4b1e,0x1f604ab080123fe49ccf67d3e4d952f9cd76257d,CN:Ahnlab 1,21,39,Contract
637b4e8d5f7d58a74cfc4b1f,0x20685d7bbcb07dddbd8dbdc824c31fe2bfb31c92,GC: KrossLab,6,0,Consensus Node
637b4e8d5f7d58a74cfc4b20,0x278e6332d69eed782784d21802e3504a64a16456,KGF(PoC),341,554,Contract
637b4e8d5f7d58a74cfc4b21,0x27cbaf98ddfb5c09c787cd6d99a77c5774152b43,GC: Quantstamp,4,0,External Owned Account
637b4e8d5f7d58a74cfc4b22,0x2888d9dcbd6cefb92a76712eca61391c37df8122,CN:Kakao Pay 2,31,53,Contract
637b4e8d5f7d58a74cfc4b23,0x2968c66f14308673c12812febfa58cfe87c4e5a8,Coinone 1,1199110,199493,External Owned Account
637b4e8d5f7d58a74cfc4b24,0x2add905abfe85d32bcaf412f910f049e905a247b,CN: Sygnum2,11,20,Contract
637b4e8d5f7d58a74cfc4b25,0x2bdd279522b8a0843831fbb94cfbb24a913597c5,GC:LG Electronics,2,0,Consensus Node
637b4e8d5f7d58a74cfc4b26,0x2dab13877237aa5d83c45a245b0107904d3165f6,Reward: Kakao Corp 2,4,0,External Owned Account
637b4e8d5f7d58a74cfc4b27,0x322ec78cc94b04410ac43c2c8da7013a294bae3d,KlayCity Deployer,17786,17083,External Owned Account
637b4e8d5f7d58a74cfc4b28,0x351db3d8c9c6a70f09545ea597be3f9ffde1affc,CN: KrossLab,26,1181,Contract
637b4e8d5f7d58a74cfc4b29,0x36ff2aa21d5c6828ee12cd2bc3de0e987bc0d4e7,GC:Sygnum,3,0,Consensus Node
637b4e8d5f7d58a74cfc4b2a,0x3761313aa02e289eb13a1761ffb4353878fe4e61,Reward: Amorepacific,566,13,External Owned Account
637b4e8d5f7d58a74cfc4b2b,0x37865a44b8cb07b00b29474758bf5b2dc823d3da,Reward: Alameda Research,16,12,External Owned Account
637b4e8d5f7d58a74cfc4b2c,0x386ca3cb8bb13f48d1a6adc1fb8df09e7bb7f9c8,GC:Kakao Pay 1,5,0,Consensus Node
637b4e8d5f7d58a74cfc4b2d,0x39b0f6d8a51aed4ef94cf26598404eedf4c1990e,CN:Ahnlab 2,156,169,Contract
637b4e8d5f7d58a74cfc4b2e,0x416b23ddbf5b663003c0f88192cd4044c30e2332,CN:Amorepacific,30,52,Contract
637b4e8d5f7d58a74cfc4b2f,0x44c33a7acd1f63f53a7740ddf53636a9c45fa3eb,GC:Celltrion 2,2,0,External Owned Account
637b4e8d5f7d58a74cfc4b30,0x44f43a4f78f61e10912dabd2139c9b09f596701d,CN:Maekyung Media Group,61,650492,Contract
637b4e8d5f7d58a74cfc4b31,0x45ed4bf508ca2061a8b4a16e278ea85a8f87a70b,GC:Hi Inc,2,0,Consensus Node
637b4e8d5f7d58a74cfc4b32,0x473a7a05be7a0afc1510500ee6987b60233b9118,CN:Everrich 3,13,29,Contract
637b4e8d5f7d58a74cfc4b33,0x4814831d3d4bb854324ed0b370c8306a95cc9e41,GC:Everrich 3,2,0,External Owned Account
637b4e8d5f7d58a74cfc4b34,0x49ee0e773da2635ba01a4f808c7f1a833a97c3d9,CN:Kakao Corp 2,39,69,Contract
637b4e8d5f7d58a74cfc4b35,0x4b1ce86cb46d016e4e80d026c70b148cbc55dc8c,CN:Kakao Pay 1,33,56,Contract
637b4e8d5f7d58a74cfc4b36,0x4bb37ca32948ac115b654a8e711df1f00781c4f3,CN: Yeahmobi,11,27,Contract
637b4e8e5f7d58a74cfc4b37,0x4c1da9c8583aaee0ab9fecd7d5e9a1b559114202,Reward: Kakao Space 3,5,4,External Owned Account
637b4e8e5f7d58a74cfc4b38,0x4c921e2b4ac183b9b8ab32805ef4da8d59d49eae,GC: Swapscanner,4,0,Consensus Node
637b4e8e5f7d58a74cfc4b39,0x4fd849eb61bbef4d71352831a1cbddcb1fd98261,CN:Kracker Labs,36,1563,Contract
637b4e8e5f7d58a74cfc4b3a,0x5216670c7f5624eeb8efc1e56f2cb075a9ce8452,Reward: Kracker Labs,2,916,Contract
637b4e8e5f7d58a74cfc4b3b,0x52c0f3654e9ac47ba5e64ffcb398be485718a74b,GC: AQX,5,0,Consensus Node
637b4e8e5f7d58a74cfc4b3c,0x52d41ca72af615a1ac3301b0a93efa222ecc7541,GC:Ground X,4,0,Consensus Node
637b4e8e5f7d58a74cfc4b3d,0x53234eeab953fcf3a6b3346a84f3fd78fc3fec51,CN:Pearl Abyss,45,59284,Contract
637b4e8e5f7d58a74cfc4b3e,0x53970bc504cbc41c2a0e6460aef7d86655186284,GC:Hashed-Ozys,4,0,Consensus Node
637b4e8e5f7d58a74cfc4b3f,0x56e31f2b4a806fe00489ac9701509e0c72ac6a3a,CN:LX International 2,10,23,Contract
637b4e8e5f7d58a74cfc4b40,0x56e3a565e31f8fb0ba0b12c03355518c64372120,GC:Kakao Corp 1,2,0,Consensus Node
637b4e8e5f7d58a74cfc4b41,0x56e8c1463c341abf8b168c3079ea41ce8a387e18,GC:Post Voyager (cocone),4,0,Consensus Node
637b4e8e5f7d58a74cfc4b42,0x591dd6776e05411d420a4e97e65fbec19a85f169,Bittrex Controller,5908,41432,Contract
637b4e8e5f7d58a74cfc4b43,0x5b95b38b29aba310cdc71debbba1d56c8711d2d2,CN:Celltrion 2,23,38,Contract
637b4e8e5f7d58a74cfc4b44,0x5c66443b9d6ea82039d0ea3e04e8287688dcd4e0,GC:Netmable 2,2,0,External Owned Account
637b4e8e5f7d58a74cfc4b45,0x5e17f617b33ee6cde415439bf5d06874baeddbbf,Reward: Everrich,381,108,External Owned Account
637b4e8e5f7d58a74cfc4b46,0x5e59db28cef098d5a2e877f84127aed10d7378f2,GC:Pearl Abyss,2,0,Consensus Node
637b4e8e5f7d58a74cfc4b47,0x627ad4cc0a63322575dcf3b65124946e36215377,CN:Gumi,58,82,Contract
637b4e8e5f7d58a74cfc4b48,0x662a2c18b36b06f21105b019a8795f8d5a38b5b4,Reward:Jump Crypto-Everstake2,12,1664,External Owned Account
637b4e8e5f7d58a74cfc4b49,0x664950481f0ba5f799ba3ab36fb26b294997158d,CN: Hi Inc,8,23,Contract
637b4e8e5f7d58a74cfc4b4a,0x66bd38323c9073fbee598b8132cc2e0fdc8b4bd1,CN:Netmable 2,28,42,Contract
637b4e8e5f7d58a74cfc4b4b,0x6873352021fe9226884616dc6f189f289aeb0cc5,GC:Verichains/VNG,2,0,Consensus Node
637b4e8e5f7d58a74cfc4b4c,0x68d6ec675e0879e2098d25a4e45ec8a620c6a90a,Cypress,0,1,Contract
637b4e8e5f7d58a74cfc4b4d,0x69dec71aea51d628b02061cf28525f3e3f15d1d1,CN: Quantstamp,5,18,Contract
637b4e8e5f7d58a74cfc4b4e,0x6c9aa5f182f39c3c03c2ea8e9e934d73f876feaf,CN:Binance,20,39,Contract
637b4e8e5f7d58a74cfc4b4f,0x6f6770f1f67f44fb15b335b49581ad6b935d963a,GC:Amorepacific,2,0,Consensus Node
637b4e8f5f7d58a74cfc4b50,0x70a2bc3cbb9d4a55b070284918b3aad4e7b4143e,CN:GS Retail,36,59,Contract
637b4e8f5f7d58a74cfc4b51,0x70d85a16d3f3bc13c109cec2604054ecf803afb3,Binance Deposit,10,2,External Owned Account
637b4e8f5f7d58a74cfc4b52,0x72f5d41743a4f6838321f1a37be6859ffa61fb2d,CN:SK Networks,43,68,Contract
637b4e8f5f7d58a74cfc4b53,0x74f64cb6c2db9e0b270df1d4e563920381aec034,GC:Binance,2,0,Consensus Node
637b4e8f5f7d58a74cfc4b54,0x75239993ac422a4e6a7441d5ab47ed6e91faf306,Reward: Kakao Corp,17,2,External Owned Account
637b4e8f5f7d58a74cfc4b55,0x76310015d9e79dafd1d74323135c95784b9d8b64,CN: NFT Bank,15,717,Contract
637b4e8f5f7d58a74cfc4b56,0x7880fe25dd0669fffbd82cf6e78c16d69af82a11,GC:Hashkey 2,2,0,External Owned Account
637b4e8f5f7d58a74cfc4b57,0x79f423d76642e0cde4f84b2001608c18dd26920d,CN:Hanwha Systems,60,89,Contract
637b4e8f5f7d58a74cfc4b58,0x7b065fbb3a9b6e97f2ba788d63700bd4b8b408bc,GC:Korea Economic Daily 1,3,0,Consensus Node
637b4e8f5f7d58a74cfc4b59,0x7b8cffae623338f47b98c53570900450c3926352,CN:Post Voyager (cocone),34,53,Contract
637b4e8f5f7d58a74cfc4b5a,0x7dc0b0a1d41c90adf272de4410c307cfe3188615,CN:Kakao Entertainment 2,14,33,Contract
637b4e8f5f7d58a74cfc4b5b,0x84d34f4f83a87596cd3fb6887cff8f17bf5a7b83, Alameda Research 25,0,0,External Owned Account
637b4e8f5f7d58a74cfc4b5c,0x86d2660297c82ac656715e00c979fb5ca65eecc5,Binance 1,1878986,3991,External Owned Account
637b4e8f5f7d58a74cfc4b5d,0x8a88a093c05376886754a9b70b0d0a826a5e64be,GC:Yeahmobi,3,0,Consensus Node
637b4e8f5f7d58a74cfc4b5e,0x9419fa2e3b9eb1158de31be66c586a52f49c5de7,GC:Gumi,2,0,Consensus Node
637b4e8f5f7d58a74cfc4b5f,0x942a8d56c6330578b1e856c1c972a1ce621ff1c4,Reward: Celltrion,17,39,External Owned Account
637b4e8f5f7d58a74cfc4b60,0x980e9dfeaa8ea715e97827bb770fac8b97090ef1,GDAC 1,43174,0,External Owned Account
637b4e8f5f7d58a74cfc4b61,0x99fb17d324fa0e07f23b49d09028ac0919414db6,GC: Baobab GroundX 1,0,0,External Owned Account
637b4e8f5f7d58a74cfc4b62,0x9b5e406e8c7edb54154ec81de8e3f42e74b5fdf3,CN:FSN,60,1708290,Contract
637b4e8f5f7d58a74cfc4b63,0x9dd35021d77c1de5ed50b9d788a2f68903a96b96,MEXC 1,278344,48067,External Owned Account
637b4e8f5f7d58a74cfc4b64,0x9e01312837d20d36a18da03b0d1ea5a6cb015e3f,CN:Sygnum,21,40,Contract
637b4e8f5f7d58a74cfc4b65,0x9f10d38e650184142c1c791e1b8d03e5f14ae47f,GC:MakerDAO,3,0,Consensus Node
637b4e8f5f7d58a74cfc4b66,0x9fe4ddee729d50e21e4ebe470092d61501d80a74,Reward: Kracker Labs 2,66,1,External Owned Account
637b4e8f5f7d58a74cfc4b67,0xa2ba8f7798649a778a1fd66d3035904949fec555,GC:Celltrion 1,3,0,Consensus Node
637b4e8f5f7d58a74cfc4b68,0xa3885c1ce5061f958a891384140860e2ca54d74e,Reward: Kakao Space,8,213104,Contract
637b4e905f7d58a74cfc4b69,0xa3b387b7b0dc914a4f106ad645a0ad079d70ebdc,GC:Jump Crypto-Everstake,4,0,Consensus Node
637b4e905f7d58a74cfc4b6a,0xa75dd0f10573ac58d274b53ee1a281a7a616252e,CN:Verichains/VNG,23,42,Contract
637b4e905f7d58a74cfc4b6b,0xa7886fbc6d33dd19c090fd48337a409941f75e1f,Reward: Kracker Labs3,3,9530,Contract
637b4e905f7d58a74cfc4b6c,0xa8f51f43d6d19bdf0eb7df5e279c8058a64d20e4,CN:Kakao Space,51,80850,Contract
637b4e905f7d58a74cfc4b6d,0xac7f6f8a63733877a78917dc798ed7693095be7b,Reward: Korea Economic Daily,4,15221034,Contract
637b4e905f7d58a74cfc4b6e,0xaf7e157d2d7b571abe7161bf193bb697706e2172,GC:Ahnlab 2,2,0,External Owned Account
637b4e905f7d58a74cfc4b6f,0xb04942bce102f21a226f269044f62a31bfc99671,GC:Neoply 2,2,0,External Owned Account
637b4e905f7d58a74cfc4b70,0xb0a83941058b109bd0543fa26d22efb8a2d0f431,Orbit Bridge BSC Minter,108410,887734,Contract
637b4e905f7d58a74cfc4b71,0xb122a896ddad5b21e9b1bd977dabab33f3e74427,Reward:Jump Crypto-Everstake,9,2,External Owned Account
637b4e905f7d58a74cfc4b72,0xb1345ae2015ba594576626192e33588957128cf8,CN:Alameda Research,25,39,Contract
637b4e905f7d58a74cfc4b73,0xb3b340abf6d9bda0d37ef70b35d0e7cc15407f2e,GC:Everrich 2,2,0,External Owned Account
637b4e905f7d58a74cfc4b74,0xb40767d69d511bf8f12bf2d7f253f1b40dfe38fe,CN:Celltrion 1,47,67,Contract
637b4e905f7d58a74cfc4b75,0xb601ab857ec1ff0abfdb17f7fc354936307be163,CN:Kakao Corp 1,19,36,Contract
637b4e905f7d58a74cfc4b76,0xb806f1a275f9b8b2700944b815698e3516aa53c3,CN:Jump Crypto-Everstake,56,9600,Contract
637b4e905f7d58a74cfc4b77,0xb9456fd65a6810b19df24832c50b2e61a41867f8,GC:GS Retail,2,0,Consensus Node
637b4e905f7d58a74cfc4b78,0xbc8d2fd8c2ab4b76306d9d8b9f5721b13f239220,Reward: Kakao Space 2,4,26,External Owned Account
637b4e905f7d58a74cfc4b79,0xbca8ffa45cc8e30bbc0522cdf1a1e0ebf540dfe2,GC:Kakao Entertainment 1,3,0,Consensus Node
637b4e905f7d58a74cfc4b7a,0xc0094bf2fb2fad63261afa39a75b3883d91a4c57,GC:Korea Economic Daily 2,2,0,External Owned Account
637b4e905f7d58a74cfc4b7b,0xc032c34cb9fe064fe435199e1078dd8756a166b5,GC:SK Networks,2,0,Consensus Node
637b4e905f7d58a74cfc4b7c,0xc11a63fffd55df39901065cc55d3ea792f8d44ff,CN:Everrich 2,150,216,Contract
637b4e905f7d58a74cfc4b7d,0xc180ca565b34b5b63877674f5fe647e7da079022,GC:Hanwha Systems,2,0,Consensus Node
637b4e905f7d58a74cfc4b7e,0xc39e93cfe231b1269c57fc8cf577700f7d08c357,CN:LG Electronics,35,58,Contract
637b4e905f7d58a74cfc4b7f,0xc555a7ee3612b28114999cb2e41e359288c27b3c,Coinone FeePayer,4,1,External Owned Account
637b4e905f7d58a74cfc4b80,0xc5b67d88c3a26fcee67fc542009d8526f6b4c8a3,Reward: Hi Inc,14,2,External Owned Account
637b4e905f7d58a74cfc4b81,0xc5ed2333f8a2c351fca35e5ebadb2a82f5d254c3, Alameda Research 6,20,18,External Owned Account
637b4e915f7d58a74cfc4b82,0xc9f10941081dfeaff9be80b7311c449e0f5f94ce,GC:Kakao Pay 2,2,0,External Owned Account
637b4e915f7d58a74cfc4b83,0xcaab49742bacb49b1cbe27b035cdee5efde1bb5a,CN:Korea Economic Daily 1,68,5337201,Contract
637b4e915f7d58a74cfc4b84,0xcad45055c3127a93703f6a8f69da81da6d290d94,CN:LX International 1,54,81,Contract
637b4e915f7d58a74cfc4b85,0xcae9ba7d56248165e34a7a3196003eaae3b8ff49,CN: UBP,17,37,Contract
637b4e915f7d58a74cfc4b86,0xcb21b21b8948a26259775b88c14a7dda9eb09ce7,GC: Thrust,4,0,Consensus Node
637b4e915f7d58a74cfc4b87,0xcd3a382fe4da71d70f5664d99a97cd55d9b317c5,Reward: Korea Economic Daily 2,36,162376,External Owned Account
637b4e915f7d58a74cfc4b88,0xcd953813896f766f1eb9b613610e1752ed6f8395,Orbit Bridge ICON Minter,3314,26305,Contract
637b4e915f7d58a74cfc4b89,0xcfc558b6f715865ce16694204dc1f5b824811053,UPbit Controller,517117,2374087,Contract
637b4e915f7d58a74cfc4b8a,0xd11dfc2ab34abd3e1abfba80b99aefbd6255c4b8,Multicall2,1,2,Contract
637b4e915f7d58a74cfc4b8b,0xd13fcb553ea18b60390964107ea38a9b0cd879dc,CN: PUBG,8,23,Contract
637b4e915f7d58a74cfc4b8c,0xd6d7762dd7fadf0512d83d0143685fc85488b64e,GC:Kracker Labs,2,0,Consensus Node
637b4e915f7d58a74cfc4b8d,0xd9147a04bba6ed9e77a46635a071c0a2dc67e01f,CN:Netmable 1,21,39,Contract
637b4e915f7d58a74cfc4b8e,0xda664b81c13b050f9b0435d0b712218aa8bb1609,CN:Neoply 1,153,208,Contract
637b4e915f7d58a74cfc4b8f,0xdc465a6ec28bd5b4eb33675b3f55420a86bda3d0,CN:Kakao Entertainment 1,14,31,Contract
637b4e915f7d58a74cfc4b90,0xdd269c2ae784e37560e5fc1c2f2ca2b59453b4d7,CN:Hashkey 1,37,56,Contract
637b4e915f7d58a74cfc4b91,0xdedbab7de9551a2bee78792638af67d59b8675c6,Reward: Post Voyager (cocone),65,35,External Owned Account
637b4e915f7d58a74cfc4b92,0xdff9e057f12c54ec49e02be401018e8334b8ba16,Swapscanner Deployer,5,2,External Owned Account
637b4e915f7d58a74cfc4b93,0xe36ea146c05757a38ec1493eea8c878677a9c19a,GC: NFT Bank 1,2,0,Consensus Node
637b4e915f7d58a74cfc4b94,0xe3d92072d8b9a59a0427485a1b5f459271df457c,GC:Hashkey 1,3,0,Consensus Node
637b4e915f7d58a74cfc4b95,0xe5988841a6bcff92150c33fd43008be6fffd3cc1,CN:Korea Economic Daily 2,15,37,Contract
637b4e915f7d58a74cfc4b96,0xe5d0ef77aed07c302634dc370537126a2cd26590,Alameda Research 8,17,15,External Owned Account
637b4e915f7d58a74cfc4b97,0xe783fc94fddaeebef7293d6c5864cff280f121e1,GC:LX International 1,3,0,Consensus Node
637b4e915f7d58a74cfc4b98,0xe81339694c4fcf629606347f4aff0633697d190a,WEMIX EcoFund,14,12,External Owned Account
637b4e915f7d58a74cfc4b99,0xe93a890fb7ec5e993b1a7fd77b0d13a0763eff3d,GC:Neoply 1,3,0,Consensus Node
637b4e915f7d58a74cfc4b9a,0xeb41033d99570fcd11021081e0bec43a8d694bf8,CN: Thrust,12,6975,Contract
637b4e925f7d58a74cfc4b9b,0xebd40e6f631dc8d001f3d72acbc2948f2e8384f3,CN: AQX,7,20,Contract
637b4e925f7d58a74cfc4b9c,0xec6c1cede510be308f0fdbbc8dbdf238829bdb34,GC:Wemade 1,4,0,Consensus Node
637b4e925f7d58a74cfc4b9d,0xed0e18f99b684009fcf44c80e471717335ac49c9,ClaimSwap Deployer,1647,1563,External Owned Account
637b4e925f7d58a74cfc4b9e,0xed6ee8a1877f9582858dbe2509abb0ac33e5f24e,GC:Netmable 1,3,0,Consensus Node
637b4e925f7d58a74cfc4b9f,0xeffa404dac6ba720002974c54d57b20e89b22862,KLAYstation: The Korea Economic Daily,166606,25280119,Contract
637b4e925f7d58a74cfc4ba0,0xf113ec8c22765d485309cf1d025d1b975245b9f8,GC:Kakao Space,4,0,Consensus Node
637b4e925f7d58a74cfc4ba1,0xf42a1f194d2807e03e5feaddd2247dca5ea41990,Coinone Deposit,34,0,External Owned Account
637b4e925f7d58a74cfc4ba2,0xf50782a24afcb26acb85d086cf892bfffb5731b5,SwapScanner,1144297,17446531,Contract
637b4e925f7d58a74cfc4ba3,0xf6623192aa096e192024ecb381b04c58df9a6075,GC:PUBG,3,0,Consensus Node
637b4e925f7d58a74cfc4ba4,0xf7136f02bb99f467451ee3369fb9d069d7701d2c,CN:Ground X,122,170,Contract
637b4e925f7d58a74cfc4ba5,0xf8b8a5eac80689b4386de3c223c4f50d3b971a56,GC:LX International 2,2,0,External Owned Account
637b4e925f7d58a74cfc4ba6,0xf8c9c61c5e7f2b6219d1c28b94e5cb3cdc802594,GC:Kakao Games,2,0,Consensus Node
637b4e925f7d58a74cfc4ba7,0xf8e1b55bd421cba9187a60f9729cdb593e39492a,Reward: Swapscanner,4,0,External Owned Account
637b4e925f7d58a74cfc4ba8,0xf9ed08df3a60fecfbf3ec822a7279e6bc1130212,GC:Kakao Corp 2,2,0,External Owned Account
637b4e925f7d58a74cfc4ba9,0xfa416ef420b553f6ad622cda922e9d195a8025df,Coinone 2,55,24,External Owned Account
637b4e925f7d58a74cfc4baa,0xfb416e2a714a5d1e034beacf0646a36876b72765,GC:Alameda Research,3,0,Consensus Node
637b4e925f7d58a74cfc4bab,0xfc0b19569867a6a9324b65fecb6f1b43bb16ccf3,MulticallExtended,0,1,Contract
637b4e925f7d58a74cfc4bac,0xfd1bd6b2660d703b5a6776a5e335da933d3f6563,CN:Hashkey 2,4658,8369,Contract
637b4e925f7d58a74cfc4bad,0xfda6aaaf53d706eb2099c5637d5e4199dd5d4138,CN:Hashed-Ozys,28,10781659,Contract
637b4e925f7d58a74cfc4bae,0xffb11e6e660f76e54cffee6f7eaac36221cc42c4,Reward: Amorepacific 2,8,12,External Owned Account
637b4e945f7d58a74cfc4baf,0x0000000000000000000000000000000000000400,Address Book,223,1056,Contract
637b4e945f7d58a74cfc4bb0,0x000000000000000000000000000000000000dead,Null: 0xDead,13,4,External Owned Account
637b4e945f7d58a74cfc4bb1,0x020794caf06273ef3a9b4b0323c72341ec070b15,Reward: Kakao Pay 2,22,26,External Owned Account
637b4e945f7d58a74cfc4bb2,0x04185389ec237dba242888a5a28b5555d011a223,Reward: Binance,6,0,External Owned Account
637b4e945f7d58a74cfc4bb3,0x064ce4c3e8409a544ce91245f9f8cfc33bde8925,Reward: Quantstamp,4,0,External Owned Account
637b4e945f7d58a74cfc4bb4,0x071086d607198e5e908f6a260adc53a925c0c161,Reward: Gumi,3,0,External Owned Account
637b4e945f7d58a74cfc4bb5,0x07fae5c2c0b4b315ccacbb8e79a75c1e61ab07c9,GC:Wemade 2,2,0,External Owned Account
637b4e945f7d58a74cfc4bb6,0x0af91fa049a7e1894f480bfe5bba20142c6c29a9,Synapse Deployer,120,111,External Owned Account
637b4e945f7d58a74cfc4bb7,0x0b7a430594085b078e357be5afa1ef73ef27b602,Reward: Pearl Abyss 2,7,163977,Contract
637b4e945f7d58a74cfc4bb8,0x0c0fe4e0236480e16b679ee1fd0c5247f9cf35f0, Alameda Research 22,9,5,External Owned Account
637b4e945f7d58a74cfc4bb9,0x0c41cce8ddaea235f97745a13207421dca7340fa,Reward: Verichains/VNG,9,25,External Owned Account
637b4e945f7d58a74cfc4bba,0x0edf1992d42740affd07da51badc1c76e98a5585,CN:MakerDAO,17,34,Contract
637b4e945f7d58a74cfc4bbb,0x1381d45adbcc8f52df274e3ffd6d4bb9341d3b0d,Reward: LG Electronics,4,26,External Owned Account
637b4e945f7d58a74cfc4bbc,0x1390eab3ad2e674646a8f92460098886409fd57b,GC:Maekyung Media Group,3,0,Consensus Node
637b4e945f7d58a74cfc4bbd,0x179679457f93094a4e7186abcb2089661e92fc22,Reward: Netmable,13,30,External Owned Account
637b4e945f7d58a74cfc4bbe,0x186de0382923086f73367bab16af09aeda4e54bf,Reward: Ground X,185,84,External Owned Account
637b4e945f7d58a74cfc4bbf,0x1a147924d0489fccf53471904dc271b9d20157a4,Reward: Jump Crypto-Everstake,3,20095,Contract
637b4e945f7d58a74cfc4bc0,0x1cdf71aa15f58ce0ae0034302479ef465983f5ba,CN:Wemade 2,80,111,Contract
637b4e945f7d58a74cfc4bc1,0x1e0049783f008a0085193e00003d00cd54003c71, OpenSea Conduit,1,60961,Contract
637b4e945f7d58a74cfc4bc2,0x1ee5cd9875011a11558c92e7406fcf08ffa0b7f4,CN:Wemade 1,37,60,Contract
637b4e945f7d58a74cfc4bc3,0x1f55eadcc398e9a2d3b8b505c993e19d210786bf,Reward: Kakao Pay,4,0,External Owned Account
637b4e945f7d58a74cfc4bc4,0x24e593fb29731e54905025c230727dc28d229f77,Reward: Hanwha Systems,16,25,External Owned Account
637b4e945f7d58a74cfc4bc5,0x276199434a04b2607d5e95670e5cb6a7e7f10f3d,Kokoa Deployer,24411,23884,External Owned Account
637b4e945f7d58a74cfc4bc6,0x2a2f23ff33671361010d357529bdf0adca9416fc,Pangea Deployer,719,716,External Owned Account
637b4e945f7d58a74cfc4bc7,0x2b2a7a1d29a203f60e0a964fc64231265a49cd97,Reward: Ahnlab,165,178,External Owned Account
637b4e945f7d58a74cfc4bc8,0x2dab13877237aa5d83c45a245b0107904d3165f6,Reward: Kakao Corp 2,4,0,External Owned Account
637b4e945f7d58a74cfc4bc9,0x2deb8852c554de6a3144f48243412fd194e539ba,Reward:MakerDAO,34,0,External Owned Account
637b4e945f7d58a74cfc4bca,0x2fd3ff6e4ead7430ea25bab5e5b2b073492b7e6e,Reward: Kakao Pay 3,6,0,External Owned Account
637b4e945f7d58a74cfc4bcb,0x322ec78cc94b04410ac43c2c8da7013a294bae3d,KlayCity Deployer,17786,17083,External Owned Account
637b4e945f7d58a74cfc4bcc,0x3761313aa02e289eb13a1761ffb4353878fe4e61,Reward: Amorepacific,566,13,External Owned Account
637b4e945f7d58a74cfc4bcd,0x37865a44b8cb07b00b29474758bf5b2dc823d3da,Reward: Alameda Research,16,12,External Owned Account
637b4e945f7d58a74cfc4bce,0x3f9a2c7b4884f0fa4bb7b1f0f53a491d6c50a819,WEMIX Deployer,103,100,External Owned Account
637b4e945f7d58a74cfc4bcf,0x40549671ca98cf893976a1ddf318359b5d653248,Reward: PUBG,7,1,External Owned Account
637b4e945f7d58a74cfc4bd0,0x44d73ba870e665a7fb99c97ea817de979d3eb3ac,Klex Deployer,1512,1603,External Owned Account
637b4e945f7d58a74cfc4bd1,0x44f43a4f78f61e10912dabd2139c9b09f596701d,CN:Maekyung Media Group,61,650492,Contract
637b4e945f7d58a74cfc4bd2,0x4890e25dd9bd64709ebca564a277c9dcf16b4325,Reward: Pearl Abyss 3,4,8,External Owned Account
637b4e945f7d58a74cfc4bd3,0x49163bbc04e07e23a01b1dde6538039ebf9a66a8,Klaybank Deployer,357,332,External Owned Account
637b4e945f7d58a74cfc4bd4,0x4b87df856044f2580ca62f44f6e15121d7ebcc91,Reward:Maekyung Media Group,18,1795242,Contract
637b4e945f7d58a74cfc4bd5,0x4c1da9c8583aaee0ab9fecd7d5e9a1b559114202,Reward: Kakao Space 3,5,4,External Owned Account
637b4e945f7d58a74cfc4bd6,0x4cde9d49724c3cb88775a1956516c0ef0be546dd,Klaymore Deployer,6032,5864,External Owned Account
637b4e945f7d58a74cfc4bd7,0x5216670c7f5624eeb8efc1e56f2cb075a9ce8452,Reward: Kracker Labs,2,916,Contract
637b4e945f7d58a74cfc4bd8,0x52d41ca72af615a1ac3301b0a93efa222ecc7541,GC:Ground X,4,0,Consensus Node
637b4e945f7d58a74cfc4bd9,0x53970bc504cbc41c2a0e6460aef7d86655186284,GC:Hashed-Ozys,4,0,Consensus Node
637b4e945f7d58a74cfc4bda,0x5459c9591c3c3f260eff1a538d84610015332c91,Reward: SK Networks,15,18,External Owned Account
637b4e945f7d58a74cfc4bdb,0x54e8bc489cee5ab638920cc80160d8095df846b1,Reward: Neoply ,478,93,External Owned Account
637b4e945f7d58a74cfc4bdc,0x58f43eee8d6ac46e0b9889b33f6effaa0845b1ba,Reward: Yeahmobi,118,29,External Owned Account
637b4e945f7d58a74cfc4bdd,0x5e17f617b33ee6cde415439bf5d06874baeddbbf,Reward: Everrich,381,108,External Owned Account
637b4e945f7d58a74cfc4bde,0x5ee78209ee1c9b3d332087f76fc6ab2eb71bb240,Reward: KrossLab3,3,6034,Contract
637b4e945f7d58a74cfc4bdf,0x5f1dbd747996d8d31e2ab0317be7ffffd155522a,Reward: Kakao Entertainment,16,26,External Owned Account
637b4e945f7d58a74cfc4be0,0x60070f5d2e1c1001400a04f152e7abd43410f7b9,Orbit Bridge ETH Minter,144905,1144818,Contract
637b4e955f7d58a74cfc4be1,0x662a2c18b36b06f21105b019a8795f8d5a38b5b4,Reward:Jump Crypto-Everstake2,12,1664,External Owned Account
637b4e955f7d58a74cfc4be2,0x6981705d156d6fb7bef67914a670de81be233d33,Pala Deployer,3852,3772,External Owned Account
637b4e955f7d58a74cfc4be3,0x6e7b5c01b210a6238df15c5a2d8238e22001496a,Definix Deployer,40,32,External Owned Account
637b4e955f7d58a74cfc4be4,0x6edb7a73a3afa981239b58459f897514f5fdefb5,OrbitBridge Deployer,349,370,External Owned Account
637b4e955f7d58a74cfc4be5,0x70d85a16d3f3bc13c109cec2604054ecf803afb3,Binance Deposit,10,2,External Owned Account
637b4e955f7d58a74cfc4be6,0x716e48a4393fc064730da40d860bf962e618e33c,Reward: LX International 2,3,2,External Owned Account
637b4e955f7d58a74cfc4be7,0x75239993ac422a4e6a7441d5ab47ed6e91faf306,Reward: Kakao Corp,17,2,External Owned Account
637b4e955f7d58a74cfc4be8,0x758476368db33864b704f41cc63b8460f8e7d39a,Reward: Hashkey,2540,1506,External Owned Account
637b4e955f7d58a74cfc4be9,0x771e24c2daef1c0cb67ce392a4cd3f25d4cf8398,KlayFi Deployer,11911,3093,External Owned Account
637b4e955f7d58a74cfc4bea,0x79f83dbb81f6f706be3e8491b14790c30d03e659,Reward: LX International 3,8,16,External Owned Account
637b4e955f7d58a74cfc4beb,0x7b065fbb3a9b6e97f2ba788d63700bd4b8b408bc,GC:Korea Economic Daily 1,3,0,Consensus Node
637b4e955f7d58a74cfc4bec,0x7d7e63dc7929f70c3ded02d1835a891a96f5a972,Bithumb Deposit,7,1,External Owned Account
637b4e955f7d58a74cfc4bed,0x7db2dbb1321611be0b7e5a145f3a5a95e3713c1d,Reward: NFT Bank,7,0,External Owned Account
637b4e955f7d58a74cfc4bee,0x84d34f4f83a87596cd3fb6887cff8f17bf5a7b83, Alameda Research 25,0,0,External Owned Account
637b4e955f7d58a74cfc4bef,0x858995d25ec828306e65421a7abf3ffe00b91eec,Reward: UBP,4,1,External Owned Account
637b4e955f7d58a74cfc4bf0,0x87102d7d4e813f08c1bb4fbbe513c1f8c4df24a1,AirdropOperatorDeployer,31,63,Contract
637b4e955f7d58a74cfc4bf1,0x926601ab01b1a70ec84af781aeca5e71575e08e8,Klap Deployer,5707,5682,External Owned Account
637b4e955f7d58a74cfc4bf2,0x942a8d56c6330578b1e856c1c972a1ce621ff1c4,Reward: Celltrion,17,39,External Owned Account
637b4e955f7d58a74cfc4bf3,0x980e9dfeaa8ea715e97827bb770fac8b97090ef1,GDAC 1,43174,0,External Owned Account
637b4e955f7d58a74cfc4bf4,0x9951c3f5afa1ae5549371e8722aff25b9e941664,Reward: GS Retail,80,27,External Owned Account
637b4e955f7d58a74cfc4bf5,0x99fb17d324fa0e07f23b49d09028ac0919414db6,GC: Baobab GroundX 1,0,0,External Owned Account
637b4e955f7d58a74cfc4bf6,0x9abc3f6c11dbd83234d6e6b2c373dfc1893f648d,Orbit Bridge Klaytn Vault,60242,199399,Contract
637b4e955f7d58a74cfc4bf7,0x9bb0bf13103dfd75877979c5224173562e4ff552,Orbit Bridge Orbit Minter,1595,16477,Contract
637b4e955f7d58a74cfc4bf8,0x9f10d38e650184142c1c791e1b8d03e5f14ae47f,GC:MakerDAO,3,0,Consensus Node
637b4e955f7d58a74cfc4bf9,0x9fe4ddee729d50e21e4ebe470092d61501d80a74,Reward: Kracker Labs 2,66,1,External Owned Account
637b4e965f7d58a74cfc4bfa,0xa3885c1ce5061f958a891384140860e2ca54d74e,Reward: Kakao Space,8,213104,Contract
637b4e965f7d58a74cfc4bfb,0xa7742fc43c4cc193a4a1671cba589aa3c4133f7c,Reward: LX International,25,14,External Owned Account
637b4e965f7d58a74cfc4bfc,0xa7886fbc6d33dd19c090fd48337a409941f75e1f,Reward: Kracker Labs3,3,9530,Contract
637b4e965f7d58a74cfc4bfd,0xac7f6f8a63733877a78917dc798ed7693095be7b,Reward: Korea Economic Daily,4,15221034,Contract
637b4e965f7d58a74cfc4bfe,0xadb287e1f8405f085c740e791a3914f9b07acae0,Reward: Hashed-Ozys,5,27727805,Contract
637b4e965f7d58a74cfc4bff,0xb0a83941058b109bd0543fa26d22efb8a2d0f431,Orbit Bridge BSC Minter,108410,887734,Contract
637b4e965f7d58a74cfc4c00,0xb122a896ddad5b21e9b1bd977dabab33f3e74427,Reward:Jump Crypto-Everstake,9,2,External Owned Account
637b4e965f7d58a74cfc4c01,0xb1345ae2015ba594576626192e33588957128cf8,CN:Alameda Research,25,39,Contract
637b4e965f7d58a74cfc4c02,0xbc8d2fd8c2ab4b76306d9d8b9f5721b13f239220,Reward: Kakao Space 2,4,26,External Owned Account
637b4e965f7d58a74cfc4c03,0xbd2bdd78de340ed82f99120d332acf36dc0a34ea,Reward: FSN 2,68,29,External Owned Account
637b4e965f7d58a74cfc4c04,0xc0094bf2fb2fad63261afa39a75b3883d91a4c57,GC:Korea Economic Daily 2,2,0,External Owned Account
637b4e965f7d58a74cfc4c05,0xc1c7c405145e5d7c84924896daf790ce534a7021,Reward: KrossLab2,30,700,External Owned Account
637b4e965f7d58a74cfc4c06,0xc5b67d88c3a26fcee67fc542009d8526f6b4c8a3,Reward: Hi Inc,14,2,External Owned Account
637b4e965f7d58a74cfc4c07,0xc5ed2333f8a2c351fca35e5ebadb2a82f5d254c3, Alameda Research 6,20,18,External Owned Account
637b4e965f7d58a74cfc4c08,0xc85d740a01dacefaf4c2f9e6a6e35c6255a807a2,Wemade FeePayer,10,1,External Owned Account
637b4e965f7d58a74cfc4c09,0xc8e7053dc17bce47d2317718734ef087be40a023,Reward: AQX,4,0,External Owned Account
637b4e965f7d58a74cfc4c0a,0xca742951868353c0d24b92c867e30af8fc36278d,Reward: Kakao Games,64,28,External Owned Account
637b4e965f7d58a74cfc4c0b,0xcaab49742bacb49b1cbe27b035cdee5efde1bb5a,CN:Korea Economic Daily 1,68,5337201,Contract
637b4e965f7d58a74cfc4c0c,0xccce30b670cf263df89dd53998c29b87a11ec9a2,WKLAY Deployer,13,10,External Owned Account
637b4e965f7d58a74cfc4c0d,0xcce85eed435b134aede6c562cce5fdc260e445e1,Reward:Pearl Abyss 1,9,0,External Owned Account
637b4e965f7d58a74cfc4c0e,0xcd3a382fe4da71d70f5664d99a97cd55d9b317c5,Reward: Korea Economic Daily 2,36,162376,External Owned Account
637b4e965f7d58a74cfc4c0f,0xcd953813896f766f1eb9b613610e1752ed6f8395,Orbit Bridge ICON Minter,3314,26305,Contract
637b4e965f7d58a74cfc4c10,0xd1f60aa008d328aa699d4fd2741dba147aeb0bb3,Reward: SK Networks 2,9,15,External Owned Account
637b4e965f7d58a74cfc4c11,0xda5609a74470689a3b51cb53ee3c499b0f54f31a,Reward: Gumi,33,51,External Owned Account
637b4e965f7d58a74cfc4c12,0xdc7dda990c08513962d5ae6dfb195b1f6879bfaf,Reward:Sygnum,112,0,External Owned Account
637b4e975f7d58a74cfc4c13,0xdedbab7de9551a2bee78792638af67d59b8675c6,Reward: Post Voyager (cocone),65,35,External Owned Account
637b4e975f7d58a74cfc4c14,0xdff9e057f12c54ec49e02be401018e8334b8ba16,Swapscanner Deployer,5,2,External Owned Account
637b4e975f7d58a74cfc4c15,0xe21ec87edfaa34070455ebd85072e4e3413dbea6,Reward: NFT Bank2,7,735,Contract
637b4e975f7d58a74cfc4c16,0xe2e2d9e31d7e1cc1178fe0d1c5950f6c809816a3,Portal Deployer,138,138,External Owned Account
637b4e975f7d58a74cfc4c17,0xe33337cb6fbb68954fe1c3fde2b21f56586632cd,KLAYstation: Hashed-Ozys,702570,50605162,Contract
637b4e975f7d58a74cfc4c18,0xe3d49ffc285c668425b2966b683776f632859efa,Reward: FSN,4,4840356,Contract
637b4e975f7d58a74cfc4c19,0xe41ea283f655c58156b310c3b850cedee73f3912,Reward: Thrust,89,1678,External Owned Account
637b4e975f7d58a74cfc4c1a,0xe5988841a6bcff92150c33fd43008be6fffd3cc1,CN:Korea Economic Daily 2,15,37,Contract
637b4e975f7d58a74cfc4c1b,0xe5d0ef77aed07c302634dc370537126a2cd26590,Alameda Research 8,17,15,External Owned Account
637b4e975f7d58a74cfc4c1c,0xe81339694c4fcf629606347f4aff0633697d190a,WEMIX EcoFund,14,12,External Owned Account
637b4e975f7d58a74cfc4c1d,0xec6c1cede510be308f0fdbbc8dbdf238829bdb34,GC:Wemade 1,4,0,Consensus Node
637b4e975f7d58a74cfc4c1e,0xed0e18f99b684009fcf44c80e471717335ac49c9,ClaimSwap Deployer,1647,1563,External Owned Account
637b4e975f7d58a74cfc4c1f,0xeffa404dac6ba720002974c54d57b20e89b22862,KLAYstation: The Korea Economic Daily,166606,25280119,Contract
637b4e975f7d58a74cfc4c20,0xf3ea7de2ea224344461d25d5ebc769d51948057d,KLAYSwap Deployer,11,7,External Owned Account
637b4e975f7d58a74cfc4c21,0xf42a1f194d2807e03e5feaddd2247dca5ea41990,Coinone Deposit,34,0,External Owned Account
637b4e975f7d58a74cfc4c22,0xf52d509dade0d5d82da429e9d45d617e5416eb09,Klaymeta Deployer,37,35,External Owned Account
637b4e975f7d58a74cfc4c23,0xf7136f02bb99f467451ee3369fb9d069d7701d2c,CN:Ground X,122,170,Contract
637b4e975f7d58a74cfc4c24,0xf786c3720a10cb48c8f12d0ac2086dcf227c7cde,Reward: Wemade,44,10,External Owned Account
637b4e975f7d58a74cfc4c25,0xf8be3f1c1e64e472cf623f0b0e19b4517be9f204,KLEVA Deployer,1103,1092,External Owned Account
637b4e975f7d58a74cfc4c26,0xf8e1b55bd421cba9187a60f9729cdb593e39492a,Reward: Swapscanner,4,0,External Owned Account
637b4e975f7d58a74cfc4c27,0xf8e24c48ddeb87713fedaf2dd305e6a7f2fdf09d,Kokonut Deployer,2838,2643,External Owned Account
637b4e975f7d58a74cfc4c28,0xfb408022696b77a3aa95ba48929e9a8348e50c9f,MARBLEX Deployer,26,23,External Owned Account
637b4e975f7d58a74cfc4c29,0xfb416e2a714a5d1e034beacf0646a36876b72765,GC:Alameda Research,3,0,Consensus Node
637b4e975f7d58a74cfc4c2a,0xfb9054bc52639579ba694fb3ac00259f561841ce,Reward: UBP 2,28,19,External Owned Account
637b4e975f7d58a74cfc4c2b,0xfc0b19569867a6a9324b65fecb6f1b43bb16ccf3,MulticallExtended,0,1,Contract
637b4e985f7d58a74cfc4c2c,0xfc2a7ec29143621c7e0e651ee2bca428a95c7af4,Reward: Wemade 2,239,238,External Owned Account
637b4e985f7d58a74cfc4c2d,0xfc37e31fe3b1019f5be58cb826e5d7b08f9b2e35,Reward: KrossLab,4,0,External Owned Account
637b4e985f7d58a74cfc4c2e,0xfda6aaaf53d706eb2099c5637d5e4199dd5d4138,CN:Hashed-Ozys,28,10781659,Contract
637b4e985f7d58a74cfc4c2f,0xffb11e6e660f76e54cffee6f7eaac36221cc42c4,Reward: Amorepacific 2,8,12,External Owned Account
637b4e995f7d58a74cfc4c30,0x0000000000000000000000000000000000000400,Address Book,223,1056,Contract
637b4e995f7d58a74cfc4c31,0x000000000000000000000000000000000000dead,Null: 0xDead,13,4,External Owned Account
637b4e995f7d58a74cfc4c32,0x00000000006c3852cbef3e08e8df289169ede581,Opensea Seaport,16881,52979,Contract
637b4e995f7d58a74cfc4c33,0x0039611735b48a1d7227d1df88e16cebc415aa72,OpenSea 1155 Proxy,2,13571,Contract
637b4e995f7d58a74cfc4c34,0x020794caf06273ef3a9b4b0323c72341ec070b15,Reward: Kakao Pay 2,22,26,External Owned Account
637b4e995f7d58a74cfc4c35,0x04185389ec237dba242888a5a28b5555d011a223,Reward: Binance,6,0,External Owned Account
637b4e995f7d58a74cfc4c36,0x064ce4c3e8409a544ce91245f9f8cfc33bde8925,Reward: Quantstamp,4,0,External Owned Account
637b4e995f7d58a74cfc4c37,0x071086d607198e5e908f6a260adc53a925c0c161,Reward: Gumi,3,0,External Owned Account
637b4e995f7d58a74cfc4c38,0x0795aea6948fc1d31809383edc4183b220abd71f,KLAYstation: Jump Crypto-Everstake,1823,37957,Contract
637b4e995f7d58a74cfc4c39,0x07fae5c2c0b4b315ccacbb8e79a75c1e61ab07c9,GC:Wemade 2,2,0,External Owned Account
637b4e995f7d58a74cfc4c3a,0x0a5e4618d91c9ba77349c4064a04792a35a56b42,CN:Everrich 1,521,660,Contract
637b4e995f7d58a74cfc4c3b,0x0af91fa049a7e1894f480bfe5bba20142c6c29a9,Synapse Deployer,120,111,External Owned Account
637b4e995f7d58a74cfc4c3c,0x0b7a430594085b078e357be5afa1ef73ef27b602,Reward: Pearl Abyss 2,7,163977,Contract
637b4e995f7d58a74cfc4c3d,0x0c0fe4e0236480e16b679ee1fd0c5247f9cf35f0, Alameda Research 22,9,5,External Owned Account
637b4e995f7d58a74cfc4c3e,0x0c41cce8ddaea235f97745a13207421dca7340fa,Reward: Verichains/VNG,9,25,External Owned Account
637b4e995f7d58a74cfc4c3f,0x0d0707963952f2fba59dd06f2b425ace40b492fe,Gate.io 1,394385,42635,External Owned Account
637b4e995f7d58a74cfc4c40,0x0d3aca076712de598df856cecef76dad38f0a75b,CN:Neoply 2,23733,54730,Contract
637b4e995f7d58a74cfc4c41,0x0edf1992d42740affd07da51badc1c76e98a5585,CN:MakerDAO,17,34,Contract
637b4e995f7d58a74cfc4c42,0x10f0eaa52a474f0605afbb8c17bb9189e6ed006c,KAS FeePayer,16,0,External Owned Account
637b4e995f7d58a74cfc4c43,0x1111111254fb6c44bac0bed2854e76f90643097d,1inch : Router,25552,130406,Contract
637b4e995f7d58a74cfc4c44,0x1381d45adbcc8f52df274e3ffd6d4bb9341d3b0d,Reward: LG Electronics,4,26,External Owned Account
637b4e995f7d58a74cfc4c45,0x1390eab3ad2e674646a8f92460098886409fd57b,GC:Maekyung Media Group,3,0,Consensus Node
637b4e995f7d58a74cfc4c46,0x140ffdf900768f1b6883f4035a6b650c4a3789aa,GC:Jump Crypto-Everstake2,4,0,External Owned Account
637b4e995f7d58a74cfc4c47,0x169a89b74ec6db558a8a344b641d6f0a7e2f14b3,GC:Kakao Entertainment 2,2,0,External Owned Account
637b4e995f7d58a74cfc4c48,0x16c192585a0ab24b552783b4bf7d8dc9f6855c35,GC:Everrich 1,2,0,Consensus Node
637b4e995f7d58a74cfc4c49,0x179679457f93094a4e7186abcb2089661e92fc22,Reward: Netmable,13,30,External Owned Account
637b4e995f7d58a74cfc4c4a,0x186de0382923086f73367bab16af09aeda4e54bf,Reward: Ground X,185,84,External Owned Account
637b4e995f7d58a74cfc4c4b,0x187c1a8f10a08bd24604efdeb7706bcdce98b8f3, Bittrex 1,11268,10758,External Owned Account
637b4e995f7d58a74cfc4c4c,0x1916ce6726e73dca6242b091322f68bbf520497b,CN:Kakao Games,164,262,Contract
637b4e995f7d58a74cfc4c4d,0x1a147924d0489fccf53471904dc271b9d20157a4,Reward: Jump Crypto-Everstake,3,20095,Contract
637b4e995f7d58a74cfc4c4e,0x1a92d5a736d3a8b6d8f6153ba9eb556bae10417a,CN:Jump Crypto-Everstake2,18,48,Contract
637b4e995f7d58a74cfc4c4f,0x1cdf71aa15f58ce0ae0034302479ef465983f5ba,CN:Wemade 2,80,111,Contract
637b4e995f7d58a74cfc4c50,0x1cf36ee02ab5b56a51c1fcddc84e0873fdebc812,CN: Swapscanner,11,24,Contract
637b4e995f7d58a74cfc4c51,0x1e0049783f008a0085193e00003d00cd54003c71, OpenSea Conduit,1,60961,Contract
637b4e995f7d58a74cfc4c52,0x1ee5cd9875011a11558c92e7406fcf08ffa0b7f4,CN:Wemade 1,37,60,Contract
637b4e995f7d58a74cfc4c53,0x1f55eadcc398e9a2d3b8b505c993e19d210786bf,Reward: Kakao Pay,4,0,External Owned Account
637b4e995f7d58a74cfc4c54,0x2222222ff003b62605ca622a9daab160497e95ba,Giveaway,140,35119,Contract
637b4e995f7d58a74cfc4c55,0x22835801c15abee19f408c78cad1da41cbb6f0da,KLAY Genesis 1,109,147,External Owned Account
637b4e995f7d58a74cfc4c56,0x24e593fb29731e54905025c230727dc28d229f77,Reward: Hanwha Systems,16,25,External Owned Account
637b4e995f7d58a74cfc4c57,0x24f55a6f46f126aa7209c882c275fedb6c108164,KLAY Genesis 2,2,2,External Owned Account
637b4e995f7d58a74cfc4c58,0x276199434a04b2607d5e95670e5cb6a7e7f10f3d,Kokoa Deployer,24411,23884,External Owned Account
637b4e995f7d58a74cfc4c59,0x2968c66f14308673c12812febfa58cfe87c4e5a8,Coinone 1,1199110,199493,External Owned Account
637b4e995f7d58a74cfc4c5a,0x2a2f23ff33671361010d357529bdf0adca9416fc,Pangea Deployer,719,716,External Owned Account
637b4e995f7d58a74cfc4c5b,0x2b2a7a1d29a203f60e0a964fc64231265a49cd97,Reward: Ahnlab,165,178,External Owned Account
637b4e995f7d58a74cfc4c5c,0x2bdd279522b8a0843831fbb94cfbb24a913597c5,GC:LG Electronics,2,0,Consensus Node
637b4e995f7d58a74cfc4c5d,0x2dab13877237aa5d83c45a245b0107904d3165f6,Reward: Kakao Corp 2,4,0,External Owned Account
637b4e995f7d58a74cfc4c5e,0x2deb8852c554de6a3144f48243412fd194e539ba,Reward:MakerDAO,34,0,External Owned Account
637b4e995f7d58a74cfc4c5f,0x2fb205ab8e2b62d1975de7f8c3a82159fb864ed6,WEMIX Reserve 3,2,2,External Owned Account
637b4e995f7d58a74cfc4c60,0x2fd3ff6e4ead7430ea25bab5e5b2b073492b7e6e,Reward: Kakao Pay 3,6,0,External Owned Account
637b4e995f7d58a74cfc4c61,0x322ec78cc94b04410ac43c2c8da7013a294bae3d,KlayCity Deployer,17786,17083,External Owned Account
637b4e9b5f7d58a74cfc4c62,0x3761313aa02e289eb13a1761ffb4353878fe4e61,Reward: Amorepacific,566,13,External Owned Account
637b4e9b5f7d58a74cfc4c63,0x37865a44b8cb07b00b29474758bf5b2dc823d3da,Reward: Alameda Research,16,12,External Owned Account
637b4e9b5f7d58a74cfc4c64,0x3f9a2c7b4884f0fa4bb7b1f0f53a491d6c50a819,WEMIX Deployer,103,100,External Owned Account
637b4e9b5f7d58a74cfc4c65,0x40549671ca98cf893976a1ddf318359b5d653248,Reward: PUBG,7,1,External Owned Account
637b4e9b5f7d58a74cfc4c66,0x416b23ddbf5b663003c0f88192cd4044c30e2332,CN:Amorepacific,30,52,Contract
637b4e9b5f7d58a74cfc4c67,0x41cff281b578f4cf45515d6e4efd535e47e76efd,OpenSea2,657944,3787381,Contract
637b4e9b5f7d58a74cfc4c68,0x44c33a7acd1f63f53a7740ddf53636a9c45fa3eb,GC:Celltrion 2,2,0,External Owned Account
637b4e9b5f7d58a74cfc4c69,0x44d73ba870e665a7fb99c97ea817de979d3eb3ac,Klex Deployer,1512,1603,External Owned Account
637b4e9b5f7d58a74cfc4c6a,0x44f43a4f78f61e10912dabd2139c9b09f596701d,CN:Maekyung Media Group,61,650492,Contract
637b4e9b5f7d58a74cfc4c6b,0x473a7a05be7a0afc1510500ee6987b60233b9118,CN:Everrich 3,13,29,Contract
637b4e9b5f7d58a74cfc4c6c,0x4814831d3d4bb854324ed0b370c8306a95cc9e41,GC:Everrich 3,2,0,External Owned Account
637b4e9b5f7d58a74cfc4c6d,0x4890e25dd9bd64709ebca564a277c9dcf16b4325,Reward: Pearl Abyss 3,4,8,External Owned Account
637b4e9b5f7d58a74cfc4c6e,0x49163bbc04e07e23a01b1dde6538039ebf9a66a8,Klaybank Deployer,357,332,External Owned Account
637b4e9b5f7d58a74cfc4c6f,0x4b87df856044f2580ca62f44f6e15121d7ebcc91,Reward:Maekyung Media Group,18,1795242,Contract
637b4e9b5f7d58a74cfc4c70,0x4bb37ca32948ac115b654a8e711df1f00781c4f3,CN: Yeahmobi,11,27,Contract
637b4e9b5f7d58a74cfc4c71,0x4c1da9c8583aaee0ab9fecd7d5e9a1b559114202,Reward: Kakao Space 3,5,4,External Owned Account
637b4e9b5f7d58a74cfc4c72,0x4c921e2b4ac183b9b8ab32805ef4da8d59d49eae,GC: Swapscanner,4,0,Consensus Node
637b4e9b5f7d58a74cfc4c73,0x4cde9d49724c3cb88775a1956516c0ef0be546dd,Klaymore Deployer,6032,5864,External Owned Account
637b4e9b5f7d58a74cfc4c74,0x4fd849eb61bbef4d71352831a1cbddcb1fd98261,CN:Kracker Labs,36,1563,Contract
637b4e9b5f7d58a74cfc4c75,0x5216670c7f5624eeb8efc1e56f2cb075a9ce8452,Reward: Kracker Labs,2,916,Contract
637b4e9b5f7d58a74cfc4c76,0x53234eeab953fcf3a6b3346a84f3fd78fc3fec51,CN:Pearl Abyss,45,59284,Contract
637b4e9b5f7d58a74cfc4c77,0x53970bc504cbc41c2a0e6460aef7d86655186284,GC:Hashed-Ozys,4,0,Consensus Node
637b4e9b5f7d58a74cfc4c78,0x5459c9591c3c3f260eff1a538d84610015332c91,Reward: SK Networks,15,18,External Owned Account
637b4e9b5f7d58a74cfc4c79,0x54e8bc489cee5ab638920cc80160d8095df846b1,Reward: Neoply ,478,93,External Owned Account
637b4e9b5f7d58a74cfc4c7a,0x554ad0a8ac22b190b802ded54e78e80d46f02815,OpenSea 20 Proxy,2,2592965,Contract
637b4e9c5f7d58a74cfc4c7b,0x5678300abc1f599d865c3525df851b3902c88266,Klaytn Reserve 2,1734,2855,Contract
637b4e9c5f7d58a74cfc4c7c,0x56e31f2b4a806fe00489ac9701509e0c72ac6a3a,CN:LX International 2,10,23,Contract
637b4e9c5f7d58a74cfc4c7d,0x56e8c1463c341abf8b168c3079ea41ce8a387e18,GC:Post Voyager (cocone),4,0,Consensus Node
637b4e9c5f7d58a74cfc4c7e,0x5768f22232a16e4059cd446398572a881bb1913c,Bithumb FeePayer,23,0,External Owned Account
637b4e9c5f7d58a74cfc4c7f,0x58f43eee8d6ac46e0b9889b33f6effaa0845b1ba,Reward: Yeahmobi,118,29,External Owned Account
637b4e9c5f7d58a74cfc4c80,0x591dd6776e05411d420a4e97e65fbec19a85f169,Bittrex Controller,5908,41432,Contract
637b4e9c5f7d58a74cfc4c81,0x5b95b38b29aba310cdc71debbba1d56c8711d2d2,CN:Celltrion 2,23,38,Contract
637b4e9c5f7d58a74cfc4c82,0x5c4819abfa5967b9a66a13b06538bc22d20def97,WEMIX Reserve 1,174,174,External Owned Account
637b4e9c5f7d58a74cfc4c83,0x5c66443b9d6ea82039d0ea3e04e8287688dcd4e0,GC:Netmable 2,2,0,External Owned Account
637b4e9c5f7d58a74cfc4c84,0x5e17f617b33ee6cde415439bf5d06874baeddbbf,Reward: Everrich,381,108,External Owned Account
637b4e9c5f7d58a74cfc4c85,0x5e59db28cef098d5a2e877f84127aed10d7378f2,GC:Pearl Abyss,2,0,Consensus Node
637b4e9c5f7d58a74cfc4c86,0x5ee78209ee1c9b3d332087f76fc6ab2eb71bb240,Reward: KrossLab3,3,6034,Contract
637b4e9c5f7d58a74cfc4c87,0x5f1dbd747996d8d31e2ab0317be7ffffd155522a,Reward: Kakao Entertainment,16,26,External Owned Account
637b4e9c5f7d58a74cfc4c88,0x60070f5d2e1c1001400a04f152e7abd43410f7b9,Orbit Bridge ETH Minter,144905,1144818,Contract
637b4e9c5f7d58a74cfc4c89,0x662a2c18b36b06f21105b019a8795f8d5a38b5b4,Reward:Jump Crypto-Everstake2,12,1664,External Owned Account
637b4e9c5f7d58a74cfc4c8a,0x66bd38323c9073fbee598b8132cc2e0fdc8b4bd1,CN:Netmable 2,28,42,Contract
637b4e9c5f7d58a74cfc4c8b,0x6873352021fe9226884616dc6f189f289aeb0cc5,GC:Verichains/VNG,2,0,Consensus Node
637b4e9c5f7d58a74cfc4c8c,0x68d6ec675e0879e2098d25a4e45ec8a620c6a90a,Cypress,0,1,Contract
637b4e9c5f7d58a74cfc4c8d,0x6981705d156d6fb7bef67914a670de81be233d33,Pala Deployer,3852,3772,External Owned Account
637b4e9c5f7d58a74cfc4c8e,0x6c9aa5f182f39c3c03c2ea8e9e934d73f876feaf,CN:Binance,20,39,Contract
637b4e9c5f7d58a74cfc4c8f,0x6e7b5c01b210a6238df15c5a2d8238e22001496a,Definix Deployer,40,32,External Owned Account
637b4e9c5f7d58a74cfc4c90,0x6edb7a73a3afa981239b58459f897514f5fdefb5,OrbitBridge Deployer,349,370,External Owned Account
637b4e9c5f7d58a74cfc4c91,0x6f6770f1f67f44fb15b335b49581ad6b935d963a,GC:Amorepacific,2,0,Consensus Node
637b4e9c5f7d58a74cfc4c92,0x70a2bc3cbb9d4a55b070284918b3aad4e7b4143e,CN:GS Retail,36,59,Contract
637b4e9c5f7d58a74cfc4c93,0x70d85a16d3f3bc13c109cec2604054ecf803afb3,Binance Deposit,10,2,External Owned Account
637b4e9d5f7d58a74cfc4c94,0x716e48a4393fc064730da40d860bf962e618e33c,Reward: LX International 2,3,2,External Owned Account
637b4e9d5f7d58a74cfc4c95,0x72f5d41743a4f6838321f1a37be6859ffa61fb2d,CN:SK Networks,43,68,Contract
637b4e9d5f7d58a74cfc4c96,0x74f64cb6c2db9e0b270df1d4e563920381aec034,GC:Binance,2,0,Consensus Node
637b4e9d5f7d58a74cfc4c97,0x75239993ac422a4e6a7441d5ab47ed6e91faf306,Reward: Kakao Corp,17,2,External Owned Account
637b4e9d5f7d58a74cfc4c98,0x758476368db33864b704f41cc63b8460f8e7d39a,Reward: Hashkey,2540,1506,External Owned Account
637b4e9d5f7d58a74cfc4c99,0x7697d895e9b954bf79bc5eba8180817f6355a0d2,WEMIX Reserve 2,116,116,External Owned Account
637b4e9d5f7d58a74cfc4c9a,0x771e24c2daef1c0cb67ce392a4cd3f25d4cf8398,KlayFi Deployer,11911,3093,External Owned Account
637b4e9d5f7d58a74cfc4c9b,0x7880fe25dd0669fffbd82cf6e78c16d69af82a11,GC:Hashkey 2,2,0,External Owned Account
637b4e9d5f7d58a74cfc4c9c,0x79bf6868cb4f7d3dd43d915690f3556669afcf4e,KLAY Genesis 3,1,1,External Owned Account
637b4e9d5f7d58a74cfc4c9d,0x79f423d76642e0cde4f84b2001608c18dd26920d,CN:Hanwha Systems,60,89,Contract
637b4e9d5f7d58a74cfc4c9e,0x79f83dbb81f6f706be3e8491b14790c30d03e659,Reward: LX International 3,8,16,External Owned Account
637b4e9d5f7d58a74cfc4c9f,0x7b065fbb3a9b6e97f2ba788d63700bd4b8b408bc,GC:Korea Economic Daily 1,3,0,Consensus Node
637b4e9d5f7d58a74cfc4ca0,0x7b8cffae623338f47b98c53570900450c3926352,CN:Post Voyager (cocone),34,53,Contract
637b4e9d5f7d58a74cfc4ca1,0x7b9dc61d4c45fd8bc4667c4b758a9f12253f1070,OpenSea 721 Proxy,2,1282983,Contract
637b4e9d5f7d58a74cfc4ca2,0x7d7e63dc7929f70c3ded02d1835a891a96f5a972,Bithumb Deposit,7,1,External Owned Account
637b4e9d5f7d58a74cfc4ca3,0x7db2dbb1321611be0b7e5a145f3a5a95e3713c1d,Reward: NFT Bank,7,0,External Owned Account
637b4e9d5f7d58a74cfc4ca4,0x7dc0b0a1d41c90adf272de4410c307cfe3188615,CN:Kakao Entertainment 2,14,33,Contract
637b4e9d5f7d58a74cfc4ca5,0x84d34f4f83a87596cd3fb6887cff8f17bf5a7b83, Alameda Research 25,0,0,External Owned Account
637b4e9d5f7d58a74cfc4ca6,0x854ca8508c8be2bb1f3c244045786410cb7d5d0a,KLAY Genesis 5,2843,319,External Owned Account
637b4e9d5f7d58a74cfc4ca7,0x8577ecec279fcab4b47e43d650a176f55a96e7ab,Klip FeePayer,17,0,External Owned Account
637b4e9d5f7d58a74cfc4ca8,0x858995d25ec828306e65421a7abf3ffe00b91eec,Reward: UBP,4,1,External Owned Account
637b4e9d5f7d58a74cfc4ca9,0x863d7f7966edaa3f227a43fd2dda51d7a8ecb37e,Bittrex Sweeper,0,4941,Contract
637b4e9d5f7d58a74cfc4caa,0x86d2660297c82ac656715e00c979fb5ca65eecc5,Binance 1,1878986,3991,External Owned Account
637b4e9d5f7d58a74cfc4cab,0x87102d7d4e813f08c1bb4fbbe513c1f8c4df24a1,AirdropOperatorDeployer,31,63,Contract
